(Fräser Schärfen – automatisch generiert)
G21   (mm)
G90   (absolute Positionierung)
G17   (XY-Ebene)
G0 Z20.000
G0 X0.000 Y0.000 A0.000
T1 M6   (Werkzeugwechsel)
G54   (Werkstücknullpunkt)
G0 X0.000 Y0.000 Z0.000 A0.000
S3000 M3   (Spindel EIN, Schleifscheibe)

(Schleifdurchgang 1, Z=-0.050)
G1 Z-0.050 F200.000
(Schneide 1)
G1 X0.000 A0.000 F200.000
G1 X32.000 A64.000 F200.000
G0 Z1.450
G0 X0.000 A2.500
G1 Z-0.250 F200.000
G1 X32.000 A66.500 F200.000
G0 Z1.250
G0 X0.000 A5.000
G1 Z-0.450 F200.000
G1 X32.000 A69.000 F200.000
G0 Z1.050
G0 X0.000 A7.500
G1 Z-0.650 F200.000
G1 X32.000 A71.500 F200.000
G0 Z0.850
G0 X0.000 A10.000
G1 Z-0.850 F200.000
G1 X32.000 A74.000 F200.000
G0 Z0.650
G0 X0.000 A12.500
G1 Z-1.000 F200.000
G1 X32.000 A76.500 F200.000
G0 Z0.500
G0 X0.000 A15.000
G1 Z-1.000 F200.000
G1 X32.000 A79.000 F200.000
G0 Z0.500
G0 X0.000 A17.500
G1 Z-1.000 F200.000
G1 X32.000 A81.500 F200.000
G0 Z0.500
G0 X0.000 A20.000
G1 Z-1.000 F200.000
G1 X32.000 A84.000 F200.000
G0 Z0.500
G0 X0.000 A22.500
G1 Z-1.000 F200.000
G1 X32.000 A86.500 F200.000
G0 Z0.500
G0 X0.000 A25.000
G1 Z-1.000 F200.000
G1 X32.000 A89.000 F200.000
G0 Z0.500
G0 Z-0.050
G0 Z1.450
G0 X0.000
G0 A0.000

G0 Z20.000

(Schleifdurchgang 2, Z=-0.100)
G1 Z-0.100 F200.000
(Schneide 1)
G1 X0.000 A0.000 F200.000
G1 X32.000 A64.000 F200.000
G0 Z1.400
G0 X0.000 A2.500
G1 Z-0.300 F200.000
G1 X32.000 A66.500 F200.000
G0 Z1.200
G0 X0.000 A5.000
G1 Z-0.500 F200.000
G1 X32.000 A69.000 F200.000
G0 Z1.000
G0 X0.000 A7.500
G1 Z-0.700 F200.000
G1 X32.000 A71.500 F200.000
G0 Z0.800
G0 X0.000 A10.000
G1 Z-0.900 F200.000
G1 X32.000 A74.000 F200.000
G0 Z0.600
G0 X0.000 A12.500
G1 Z-1.000 F200.000
G1 X32.000 A76.500 F200.000
G0 Z0.500
G0 X0.000 A15.000
G1 Z-1.000 F200.000
G1 X32.000 A79.000 F200.000
G0 Z0.500
G0 X0.000 A17.500
G1 Z-1.000 F200.000
G1 X32.000 A81.500 F200.000
G0 Z0.500
G0 X0.000 A20.000
G1 Z-1.000 F200.000
G1 X32.000 A84.000 F200.000
G0 Z0.500
G0 X0.000 A22.500
G1 Z-1.000 F200.000
G1 X32.000 A86.500 F200.000
G0 Z0.500
G0 X0.000 A25.000
G1 Z-1.000 F200.000
G1 X32.000 A89.000 F200.000
G0 Z0.500
G0 Z-0.100
G0 Z1.400
G0 X0.000
G0 A0.000

G0 Z20.000

(Schleifdurchgang 3, Z=-0.150)
G1 Z-0.150 F200.000
(Schneide 1)
G1 X0.000 A0.000 F200.000
G1 X32.000 A64.000 F200.000
G0 Z1.350
G0 X0.000 A2.500
G1 Z-0.350 F200.000
G1 X32.000 A66.500 F200.000
G0 Z1.150
G0 X0.000 A5.000
G1 Z-0.550 F200.000
G1 X32.000 A69.000 F200.000
G0 Z0.950
G0 X0.000 A7.500
G1 Z-0.750 F200.000
G1 X32.000 A71.500 F200.000
G0 Z0.750
G0 X0.000 A10.000
G1 Z-0.950 F200.000
G1 X32.000 A74.000 F200.000
G0 Z0.550
G0 X0.000 A12.500
G1 Z-1.000 F200.000
G1 X32.000 A76.500 F200.000
G0 Z0.500
G0 X0.000 A15.000
G1 Z-1.000 F200.000
G1 X32.000 A79.000 F200.000
G0 Z0.500
G0 X0.000 A17.500
G1 Z-1.000 F200.000
G1 X32.000 A81.500 F200.000
G0 Z0.500
G0 X0.000 A20.000
G1 Z-1.000 F200.000
G1 X32.000 A84.000 F200.000
G0 Z0.500
G0 X0.000 A22.500
G1 Z-1.000 F200.000
G1 X32.000 A86.500 F200.000
G0 Z0.500
G0 X0.000 A25.000
G1 Z-1.000 F200.000
G1 X32.000 A89.000 F200.000
G0 Z0.500
G0 Z-0.150
G0 Z1.350
G0 X0.000
G0 A0.000

G0 Z20.000

(Schleifdurchgang 4, Z=-0.200)
G1 Z-0.200 F200.000
(Schneide 1)
G1 X0.000 A0.000 F200.000
G1 X32.000 A64.000 F200.000
G0 Z1.300
G0 X0.000 A2.500
G1 Z-0.400 F200.000
G1 X32.000 A66.500 F200.000
G0 Z1.100
G0 X0.000 A5.000
G1 Z-0.600 F200.000
G1 X32.000 A69.000 F200.000
G0 Z0.900
G0 X0.000 A7.500
G1 Z-0.800 F200.000
G1 X32.000 A71.500 F200.000
G0 Z0.700
G0 X0.000 A10.000
G1 Z-1.000 F200.000
G1 X32.000 A74.000 F200.000
G0 Z0.500
G0 X0.000 A12.500
G1 Z-1.000 F200.000
G1 X32.000 A76.500 F200.000
G0 Z0.500
G0 X0.000 A15.000
G1 Z-1.000 F200.000
G1 X32.000 A79.000 F200.000
G0 Z0.500
G0 X0.000 A17.500
G1 Z-1.000 F200.000
G1 X32.000 A81.500 F200.000
G0 Z0.500
G0 X0.000 A20.000
G1 Z-1.000 F200.000
G1 X32.000 A84.000 F200.000
G0 Z0.500
G0 X0.000 A22.500
G1 Z-1.000 F200.000
G1 X32.000 A86.500 F200.000
G0 Z0.500
G0 X0.000 A25.000
G1 Z-1.000 F200.000
G1 X32.000 A89.000 F200.000
G0 Z0.500
G0 Z-0.200
G0 Z1.300
G0 X0.000
G0 A0.000

G0 Z20.000

(Schleifdurchgang 5, Z=-0.250)
G1 Z-0.250 F200.000
(Schneide 1)
G1 X0.000 A0.000 F200.000
G1 X32.000 A64.000 F200.000
G0 Z1.250
G0 X0.000 A2.500
G1 Z-0.450 F200.000
G1 X32.000 A66.500 F200.000
G0 Z1.050
G0 X0.000 A5.000
G1 Z-0.650 F200.000
G1 X32.000 A69.000 F200.000
G0 Z0.850
G0 X0.000 A7.500
G1 Z-0.850 F200.000
G1 X32.000 A71.500 F200.000
G0 Z0.650
G0 X0.000 A10.000
G1 Z-1.000 F200.000
G1 X32.000 A74.000 F200.000
G0 Z0.500
G0 X0.000 A12.500
G1 Z-1.000 F200.000
G1 X32.000 A76.500 F200.000
G0 Z0.500
G0 X0.000 A15.000
G1 Z-1.000 F200.000
G1 X32.000 A79.000 F200.000
G0 Z0.500
G0 X0.000 A17.500
G1 Z-1.000 F200.000
G1 X32.000 A81.500 F200.000
G0 Z0.500
G0 X0.000 A20.000
G1 Z-1.000 F200.000
G1 X32.000 A84.000 F200.000
G0 Z0.500
G0 X0.000 A22.500
G1 Z-1.000 F200.000
G1 X32.000 A86.500 F200.000
G0 Z0.500
G0 X0.000 A25.000
G1 Z-1.000 F200.000
G1 X32.000 A89.000 F200.000
G0 Z0.500
G0 Z-0.250
G0 Z1.250
G0 X0.000
G0 A0.000

G0 Z20.000

(Schleifdurchgang 6, Z=-0.300)
G1 Z-0.300 F200.000
(Schneide 1)
G1 X0.000 A0.000 F200.000
G1 X32.000 A64.000 F200.000
G0 Z1.200
G0 X0.000 A2.500
G1 Z-0.500 F200.000
G1 X32.000 A66.500 F200.000
G0 Z1.000
G0 X0.000 A5.000
G1 Z-0.700 F200.000
G1 X32.000 A69.000 F200.000
G0 Z0.800
G0 X0.000 A7.500
G1 Z-0.900 F200.000
G1 X32.000 A71.500 F200.000
G0 Z0.600
G0 X0.000 A10.000
G1 Z-1.000 F200.000
G1 X32.000 A74.000 F200.000
G0 Z0.500
G0 X0.000 A12.500
G1 Z-1.000 F200.000
G1 X32.000 A76.500 F200.000
G0 Z0.500
G0 X0.000 A15.000
G1 Z-1.000 F200.000
G1 X32.000 A79.000 F200.000
G0 Z0.500
G0 X0.000 A17.500
G1 Z-1.000 F200.000
G1 X32.000 A81.500 F200.000
G0 Z0.500
G0 X0.000 A20.000
G1 Z-1.000 F200.000
G1 X32.000 A84.000 F200.000
G0 Z0.500
G0 X0.000 A22.500
G1 Z-1.000 F200.000
G1 X32.000 A86.500 F200.000
G0 Z0.500
G0 X0.000 A25.000
G1 Z-1.000 F200.000
G1 X32.000 A89.000 F200.000
G0 Z0.500
G0 Z-0.300
G0 Z1.200
G0 X0.000
G0 A0.000

G0 Z20.000

(Schleifdurchgang 7, Z=-0.350)
G1 Z-0.350 F200.000
(Schneide 1)
G1 X0.000 A0.000 F200.000
G1 X32.000 A64.000 F200.000
G0 Z1.150
G0 X0.000 A2.500
G1 Z-0.550 F200.000
G1 X32.000 A66.500 F200.000
G0 Z0.950
G0 X0.000 A5.000
G1 Z-0.750 F200.000
G1 X32.000 A69.000 F200.000
G0 Z0.750
G0 X0.000 A7.500
G1 Z-0.950 F200.000
G1 X32.000 A71.500 F200.000
G0 Z0.550
G0 X0.000 A10.000
G1 Z-1.000 F200.000
G1 X32.000 A74.000 F200.000
G0 Z0.500
G0 X0.000 A12.500
G1 Z-1.000 F200.000
G1 X32.000 A76.500 F200.000
G0 Z0.500
G0 X0.000 A15.000
G1 Z-1.000 F200.000
G1 X32.000 A79.000 F200.000
G0 Z0.500
G0 X0.000 A17.500
G1 Z-1.000 F200.000
G1 X32.000 A81.500 F200.000
G0 Z0.500
G0 X0.000 A20.000
G1 Z-1.000 F200.000
G1 X32.000 A84.000 F200.000
G0 Z0.500
G0 X0.000 A22.500
G1 Z-1.000 F200.000
G1 X32.000 A86.500 F200.000
G0 Z0.500
G0 X0.000 A25.000
G1 Z-1.000 F200.000
G1 X32.000 A89.000 F200.000
G0 Z0.500
G0 Z-0.350
G0 Z1.150
G0 X0.000
G0 A0.000

G0 Z20.000

(Schleifdurchgang 8, Z=-0.400)
G1 Z-0.400 F200.000
(Schneide 1)
G1 X0.000 A0.000 F200.000
G1 X32.000 A64.000 F200.000
G0 Z1.100
G0 X0.000 A2.500
G1 Z-0.600 F200.000
G1 X32.000 A66.500 F200.000
G0 Z0.900
G0 X0.000 A5.000
G1 Z-0.800 F200.000
G1 X32.000 A69.000 F200.000
G0 Z0.700
G0 X0.000 A7.500
G1 Z-1.000 F200.000
G1 X32.000 A71.500 F200.000
G0 Z0.500
G0 X0.000 A10.000
G1 Z-1.000 F200.000
G1 X32.000 A74.000 F200.000
G0 Z0.500
G0 X0.000 A12.500
G1 Z-1.000 F200.000
G1 X32.000 A76.500 F200.000
G0 Z0.500
G0 X0.000 A15.000
G1 Z-1.000 F200.000
G1 X32.000 A79.000 F200.000
G0 Z0.500
G0 X0.000 A17.500
G1 Z-1.000 F200.000
G1 X32.000 A81.500 F200.000
G0 Z0.500
G0 X0.000 A20.000
G1 Z-1.000 F200.000
G1 X32.000 A84.000 F200.000
G0 Z0.500
G0 X0.000 A22.500
G1 Z-1.000 F200.000
G1 X32.000 A86.500 F200.000
G0 Z0.500
G0 X0.000 A25.000
G1 Z-1.000 F200.000
G1 X32.000 A89.000 F200.000
G0 Z0.500
G0 Z-0.400
G0 Z1.100
G0 X0.000
G0 A0.000

G0 Z20.000

(Schleifdurchgang 9, Z=-0.450)
G1 Z-0.450 F200.000
(Schneide 1)
G1 X0.000 A0.000 F200.000
G1 X32.000 A64.000 F200.000
G0 Z1.050
G0 X0.000 A2.500
G1 Z-0.650 F200.000
G1 X32.000 A66.500 F200.000
G0 Z0.850
G0 X0.000 A5.000
G1 Z-0.850 F200.000
G1 X32.000 A69.000 F200.000
G0 Z0.650
G0 X0.000 A7.500
G1 Z-1.000 F200.000
G1 X32.000 A71.500 F200.000
G0 Z0.500
G0 X0.000 A10.000
G1 Z-1.000 F200.000
G1 X32.000 A74.000 F200.000
G0 Z0.500
G0 X0.000 A12.500
G1 Z-1.000 F200.000
G1 X32.000 A76.500 F200.000
G0 Z0.500
G0 X0.000 A15.000
G1 Z-1.000 F200.000
G1 X32.000 A79.000 F200.000
G0 Z0.500
G0 X0.000 A17.500
G1 Z-1.000 F200.000
G1 X32.000 A81.500 F200.000
G0 Z0.500
G0 X0.000 A20.000
G1 Z-1.000 F200.000
G1 X32.000 A84.000 F200.000
G0 Z0.500
G0 X0.000 A22.500
G1 Z-1.000 F200.000
G1 X32.000 A86.500 F200.000
G0 Z0.500
G0 X0.000 A25.000
G1 Z-1.000 F200.000
G1 X32.000 A89.000 F200.000
G0 Z0.500
G0 Z-0.450
G0 Z1.050
G0 X0.000
G0 A0.000

G0 Z20.000

(Schleifdurchgang 10, Z=-0.500)
G1 Z-0.500 F200.000
(Schneide 1)
G1 X0.000 A0.000 F200.000
G1 X32.000 A64.000 F200.000
G0 Z1.000
G0 X0.000 A2.500
G1 Z-0.700 F200.000
G1 X32.000 A66.500 F200.000
G0 Z0.800
G0 X0.000 A5.000
G1 Z-0.900 F200.000
G1 X32.000 A69.000 F200.000
G0 Z0.600
G0 X0.000 A7.500
G1 Z-1.000 F200.000
G1 X32.000 A71.500 F200.000
G0 Z0.500
G0 X0.000 A10.000
G1 Z-1.000 F200.000
G1 X32.000 A74.000 F200.000
G0 Z0.500
G0 X0.000 A12.500
G1 Z-1.000 F200.000
G1 X32.000 A76.500 F200.000
G0 Z0.500
G0 X0.000 A15.000
G1 Z-1.000 F200.000
G1 X32.000 A79.000 F200.000
G0 Z0.500
G0 X0.000 A17.500
G1 Z-1.000 F200.000
G1 X32.000 A81.500 F200.000
G0 Z0.500
G0 X0.000 A20.000
G1 Z-1.000 F200.000
G1 X32.000 A84.000 F200.000
G0 Z0.500
G0 X0.000 A22.500
G1 Z-1.000 F200.000
G1 X32.000 A86.500 F200.000
G0 Z0.500
G0 X0.000 A25.000
G1 Z-1.000 F200.000
G1 X32.000 A89.000 F200.000
G0 Z0.500
G0 Z-0.500
G0 Z1.000
G0 X0.000
G0 A0.000

G0 Z20.000

(Schleifdurchgang 11, Z=-0.550)
G1 Z-0.550 F200.000
(Schneide 1)
G1 X0.000 A0.000 F200.000
G1 X32.000 A64.000 F200.000
G0 Z0.950
G0 X0.000 A2.500
G1 Z-0.750 F200.000
G1 X32.000 A66.500 F200.000
G0 Z0.750
G0 X0.000 A5.000
G1 Z-0.950 F200.000
G1 X32.000 A69.000 F200.000
G0 Z0.550
G0 X0.000 A7.500
G1 Z-1.000 F200.000
G1 X32.000 A71.500 F200.000
G0 Z0.500
G0 X0.000 A10.000
G1 Z-1.000 F200.000
G1 X32.000 A74.000 F200.000
G0 Z0.500
G0 X0.000 A12.500
G1 Z-1.000 F200.000
G1 X32.000 A76.500 F200.000
G0 Z0.500
G0 X0.000 A15.000
G1 Z-1.000 F200.000
G1 X32.000 A79.000 F200.000
G0 Z0.500
G0 X0.000 A17.500
G1 Z-1.000 F200.000
G1 X32.000 A81.500 F200.000
G0 Z0.500
G0 X0.000 A20.000
G1 Z-1.000 F200.000
G1 X32.000 A84.000 F200.000
G0 Z0.500
G0 X0.000 A22.500
G1 Z-1.000 F200.000
G1 X32.000 A86.500 F200.000
G0 Z0.500
G0 X0.000 A25.000
G1 Z-1.000 F200.000
G1 X32.000 A89.000 F200.000
G0 Z0.500
G0 Z-0.550
G0 Z0.950
G0 X0.000
G0 A0.000

G0 Z20.000

(Schleifdurchgang 12, Z=-0.600)
G1 Z-0.600 F200.000
(Schneide 1)
G1 X0.000 A0.000 F200.000
G1 X32.000 A64.000 F200.000
G0 Z0.900
G0 X0.000 A2.500
G1 Z-0.800 F200.000
G1 X32.000 A66.500 F200.000
G0 Z0.700
G0 X0.000 A5.000
G1 Z-1.000 F200.000
G1 X32.000 A69.000 F200.000
G0 Z0.500
G0 X0.000 A7.500
G1 Z-1.000 F200.000
G1 X32.000 A71.500 F200.000
G0 Z0.500
G0 X0.000 A10.000
G1 Z-1.000 F200.000
G1 X32.000 A74.000 F200.000
G0 Z0.500
G0 X0.000 A12.500
G1 Z-1.000 F200.000
G1 X32.000 A76.500 F200.000
G0 Z0.500
G0 X0.000 A15.000
G1 Z-1.000 F200.000
G1 X32.000 A79.000 F200.000
G0 Z0.500
G0 X0.000 A17.500
G1 Z-1.000 F200.000
G1 X32.000 A81.500 F200.000
G0 Z0.500
G0 X0.000 A20.000
G1 Z-1.000 F200.000
G1 X32.000 A84.000 F200.000
G0 Z0.500
G0 X0.000 A22.500
G1 Z-1.000 F200.000
G1 X32.000 A86.500 F200.000
G0 Z0.500
G0 X0.000 A25.000
G1 Z-1.000 F200.000
G1 X32.000 A89.000 F200.000
G0 Z0.500
G0 Z-0.600
G0 Z0.900
G0 X0.000
G0 A0.000

G0 Z20.000

(Schleifdurchgang 13, Z=-0.650)
G1 Z-0.650 F200.000
(Schneide 1)
G1 X0.000 A0.000 F200.000
G1 X32.000 A64.000 F200.000
G0 Z0.850
G0 X0.000 A2.500
G1 Z-0.850 F200.000
G1 X32.000 A66.500 F200.000
G0 Z0.650
G0 X0.000 A5.000
G1 Z-1.000 F200.000
G1 X32.000 A69.000 F200.000
G0 Z0.500
G0 X0.000 A7.500
G1 Z-1.000 F200.000
G1 X32.000 A71.500 F200.000
G0 Z0.500
G0 X0.000 A10.000
G1 Z-1.000 F200.000
G1 X32.000 A74.000 F200.000
G0 Z0.500
G0 X0.000 A12.500
G1 Z-1.000 F200.000
G1 X32.000 A76.500 F200.000
G0 Z0.500
G0 X0.000 A15.000
G1 Z-1.000 F200.000
G1 X32.000 A79.000 F200.000
G0 Z0.500
G0 X0.000 A17.500
G1 Z-1.000 F200.000
G1 X32.000 A81.500 F200.000
G0 Z0.500
G0 X0.000 A20.000
G1 Z-1.000 F200.000
G1 X32.000 A84.000 F200.000
G0 Z0.500
G0 X0.000 A22.500
G1 Z-1.000 F200.000
G1 X32.000 A86.500 F200.000
G0 Z0.500
G0 X0.000 A25.000
G1 Z-1.000 F200.000
G1 X32.000 A89.000 F200.000
G0 Z0.500
G0 Z-0.650
G0 Z0.850
G0 X0.000
G0 A0.000

G0 Z20.000

(Schleifdurchgang 14, Z=-0.700)
G1 Z-0.700 F200.000
(Schneide 1)
G1 X0.000 A0.000 F200.000
G1 X32.000 A64.000 F200.000
G0 Z0.800
G0 X0.000 A2.500
G1 Z-0.900 F200.000
G1 X32.000 A66.500 F200.000
G0 Z0.600
G0 X0.000 A5.000
G1 Z-1.000 F200.000
G1 X32.000 A69.000 F200.000
G0 Z0.500
G0 X0.000 A7.500
G1 Z-1.000 F200.000
G1 X32.000 A71.500 F200.000
G0 Z0.500
G0 X0.000 A10.000
G1 Z-1.000 F200.000
G1 X32.000 A74.000 F200.000
G0 Z0.500
G0 X0.000 A12.500
G1 Z-1.000 F200.000
G1 X32.000 A76.500 F200.000
G0 Z0.500
G0 X0.000 A15.000
G1 Z-1.000 F200.000
G1 X32.000 A79.000 F200.000
G0 Z0.500
G0 X0.000 A17.500
G1 Z-1.000 F200.000
G1 X32.000 A81.500 F200.000
G0 Z0.500
G0 X0.000 A20.000
G1 Z-1.000 F200.000
G1 X32.000 A84.000 F200.000
G0 Z0.500
G0 X0.000 A22.500
G1 Z-1.000 F200.000
G1 X32.000 A86.500 F200.000
G0 Z0.500
G0 X0.000 A25.000
G1 Z-1.000 F200.000
G1 X32.000 A89.000 F200.000
G0 Z0.500
G0 Z-0.700
G0 Z0.800
G0 X0.000
G0 A0.000

G0 Z20.000

(Schleifdurchgang 15, Z=-0.750)
G1 Z-0.750 F200.000
(Schneide 1)
G1 X0.000 A0.000 F200.000
G1 X32.000 A64.000 F200.000
G0 Z0.750
G0 X0.000 A2.500
G1 Z-0.950 F200.000
G1 X32.000 A66.500 F200.000
G0 Z0.550
G0 X0.000 A5.000
G1 Z-1.000 F200.000
G1 X32.000 A69.000 F200.000
G0 Z0.500
G0 X0.000 A7.500
G1 Z-1.000 F200.000
G1 X32.000 A71.500 F200.000
G0 Z0.500
G0 X0.000 A10.000
G1 Z-1.000 F200.000
G1 X32.000 A74.000 F200.000
G0 Z0.500
G0 X0.000 A12.500
G1 Z-1.000 F200.000
G1 X32.000 A76.500 F200.000
G0 Z0.500
G0 X0.000 A15.000
G1 Z-1.000 F200.000
G1 X32.000 A79.000 F200.000
G0 Z0.500
G0 X0.000 A17.500
G1 Z-1.000 F200.000
G1 X32.000 A81.500 F200.000
G0 Z0.500
G0 X0.000 A20.000
G1 Z-1.000 F200.000
G1 X32.000 A84.000 F200.000
G0 Z0.500
G0 X0.000 A22.500
G1 Z-1.000 F200.000
G1 X32.000 A86.500 F200.000
G0 Z0.500
G0 X0.000 A25.000
G1 Z-1.000 F200.000
G1 X32.000 A89.000 F200.000
G0 Z0.500
G0 Z-0.750
G0 Z0.750
G0 X0.000
G0 A0.000

G0 Z20.000

(Schleifdurchgang 16, Z=-0.800)
G1 Z-0.800 F200.000
(Schneide 1)
G1 X0.000 A0.000 F200.000
G1 X32.000 A64.000 F200.000
G0 Z0.700
G0 X0.000 A2.500
G1 Z-1.000 F200.000
G1 X32.000 A66.500 F200.000
G0 Z0.500
G0 X0.000 A5.000
G1 Z-1.000 F200.000
G1 X32.000 A69.000 F200.000
G0 Z0.500
G0 X0.000 A7.500
G1 Z-1.000 F200.000
G1 X32.000 A71.500 F200.000
G0 Z0.500
G0 X0.000 A10.000
G1 Z-1.000 F200.000
G1 X32.000 A74.000 F200.000
G0 Z0.500
G0 X0.000 A12.500
G1 Z-1.000 F200.000
G1 X32.000 A76.500 F200.000
G0 Z0.500
G0 X0.000 A15.000
G1 Z-1.000 F200.000
G1 X32.000 A79.000 F200.000
G0 Z0.500
G0 X0.000 A17.500
G1 Z-1.000 F200.000
G1 X32.000 A81.500 F200.000
G0 Z0.500
G0 X0.000 A20.000
G1 Z-1.000 F200.000
G1 X32.000 A84.000 F200.000
G0 Z0.500
G0 X0.000 A22.500
G1 Z-1.000 F200.000
G1 X32.000 A86.500 F200.000
G0 Z0.500
G0 X0.000 A25.000
G1 Z-1.000 F200.000
G1 X32.000 A89.000 F200.000
G0 Z0.500
G0 Z-0.800
G0 Z0.700
G0 X0.000
G0 A0.000

G0 Z20.000

(Schleifdurchgang 17, Z=-0.850)
G1 Z-0.850 F200.000
(Schneide 1)
G1 X0.000 A0.000 F200.000
G1 X32.000 A64.000 F200.000
G0 Z0.650
G0 X0.000 A2.500
G1 Z-1.000 F200.000
G1 X32.000 A66.500 F200.000
G0 Z0.500
G0 X0.000 A5.000
G1 Z-1.000 F200.000
G1 X32.000 A69.000 F200.000
G0 Z0.500
G0 X0.000 A7.500
G1 Z-1.000 F200.000
G1 X32.000 A71.500 F200.000
G0 Z0.500
G0 X0.000 A10.000
G1 Z-1.000 F200.000
G1 X32.000 A74.000 F200.000
G0 Z0.500
G0 X0.000 A12.500
G1 Z-1.000 F200.000
G1 X32.000 A76.500 F200.000
G0 Z0.500
G0 X0.000 A15.000
G1 Z-1.000 F200.000
G1 X32.000 A79.000 F200.000
G0 Z0.500
G0 X0.000 A17.500
G1 Z-1.000 F200.000
G1 X32.000 A81.500 F200.000
G0 Z0.500
G0 X0.000 A20.000
G1 Z-1.000 F200.000
G1 X32.000 A84.000 F200.000
G0 Z0.500
G0 X0.000 A22.500
G1 Z-1.000 F200.000
G1 X32.000 A86.500 F200.000
G0 Z0.500
G0 X0.000 A25.000
G1 Z-1.000 F200.000
G1 X32.000 A89.000 F200.000
G0 Z0.500
G0 Z-0.850
G0 Z0.650
G0 X0.000
G0 A0.000

G0 Z20.000

(Schleifdurchgang 18, Z=-0.900)
G1 Z-0.900 F200.000
(Schneide 1)
G1 X0.000 A0.000 F200.000
G1 X32.000 A64.000 F200.000
G0 Z0.600
G0 X0.000 A2.500
G1 Z-1.000 F200.000
G1 X32.000 A66.500 F200.000
G0 Z0.500
G0 X0.000 A5.000
G1 Z-1.000 F200.000
G1 X32.000 A69.000 F200.000
G0 Z0.500
G0 X0.000 A7.500
G1 Z-1.000 F200.000
G1 X32.000 A71.500 F200.000
G0 Z0.500
G0 X0.000 A10.000
G1 Z-1.000 F200.000
G1 X32.000 A74.000 F200.000
G0 Z0.500
G0 X0.000 A12.500
G1 Z-1.000 F200.000
G1 X32.000 A76.500 F200.000
G0 Z0.500
G0 X0.000 A15.000
G1 Z-1.000 F200.000
G1 X32.000 A79.000 F200.000
G0 Z0.500
G0 X0.000 A17.500
G1 Z-1.000 F200.000
G1 X32.000 A81.500 F200.000
G0 Z0.500
G0 X0.000 A20.000
G1 Z-1.000 F200.000
G1 X32.000 A84.000 F200.000
G0 Z0.500
G0 X0.000 A22.500
G1 Z-1.000 F200.000
G1 X32.000 A86.500 F200.000
G0 Z0.500
G0 X0.000 A25.000
G1 Z-1.000 F200.000
G1 X32.000 A89.000 F200.000
G0 Z0.500
G0 Z-0.900
G0 Z0.600
G0 X0.000
G0 A0.000

G0 Z20.000

(Schleifdurchgang 19, Z=-0.950)
G1 Z-0.950 F200.000
(Schneide 1)
G1 X0.000 A0.000 F200.000
G1 X32.000 A64.000 F200.000
G0 Z0.550
G0 X0.000 A2.500
G1 Z-1.000 F200.000
G1 X32.000 A66.500 F200.000
G0 Z0.500
G0 X0.000 A5.000
G1 Z-1.000 F200.000
G1 X32.000 A69.000 F200.000
G0 Z0.500
G0 X0.000 A7.500
G1 Z-1.000 F200.000
G1 X32.000 A71.500 F200.000
G0 Z0.500
G0 X0.000 A10.000
G1 Z-1.000 F200.000
G1 X32.000 A74.000 F200.000
G0 Z0.500
G0 X0.000 A12.500
G1 Z-1.000 F200.000
G1 X32.000 A76.500 F200.000
G0 Z0.500
G0 X0.000 A15.000
G1 Z-1.000 F200.000
G1 X32.000 A79.000 F200.000
G0 Z0.500
G0 X0.000 A17.500
G1 Z-1.000 F200.000
G1 X32.000 A81.500 F200.000
G0 Z0.500
G0 X0.000 A20.000
G1 Z-1.000 F200.000
G1 X32.000 A84.000 F200.000
G0 Z0.500
G0 X0.000 A22.500
G1 Z-1.000 F200.000
G1 X32.000 A86.500 F200.000
G0 Z0.500
G0 X0.000 A25.000
G1 Z-1.000 F200.000
G1 X32.000 A89.000 F200.000
G0 Z0.500
G0 Z-0.950
G0 Z0.550
G0 X0.000
G0 A0.000

G0 Z20.000

(Schleifdurchgang 20, Z=-1.000)
G1 Z-1.000 F200.000
(Schneide 1)
G1 X0.000 A0.000 F200.000
G1 X32.000 A64.000 F200.000
G0 Z0.500
G0 X0.000 A2.500
G1 Z-1.000 F200.000
G1 X32.000 A66.500 F200.000
G0 Z0.500
G0 X0.000 A5.000
G1 Z-1.000 F200.000
G1 X32.000 A69.000 F200.000
G0 Z0.500
G0 X0.000 A7.500
G1 Z-1.000 F200.000
G1 X32.000 A71.500 F200.000
G0 Z0.500
G0 X0.000 A10.000
G1 Z-1.000 F200.000
G1 X32.000 A74.000 F200.000
G0 Z0.500
G0 X0.000 A12.500
G1 Z-1.000 F200.000
G1 X32.000 A76.500 F200.000
G0 Z0.500
G0 X0.000 A15.000
G1 Z-1.000 F200.000
G1 X32.000 A79.000 F200.000
G0 Z0.500
G0 X0.000 A17.500
G1 Z-1.000 F200.000
G1 X32.000 A81.500 F200.000
G0 Z0.500
G0 X0.000 A20.000
G1 Z-1.000 F200.000
G1 X32.000 A84.000 F200.000
G0 Z0.500
G0 X0.000 A22.500
G1 Z-1.000 F200.000
G1 X32.000 A86.500 F200.000
G0 Z0.500
G0 X0.000 A25.000
G1 Z-1.000 F200.000
G1 X32.000 A89.000 F200.000
G0 Z0.500
G0 Z-1.000
G0 Z0.500
G0 X0.000
G0 A0.000

G0 Z20.000

(Ende Schleifprogramm)
G0 Z20.000
M5   (Spindel AUS)
G0 X0 Y0 A0
M30