(Fräser Schärfen – automatisch generiert)
G21   (mm)
G90   (absolute Positionierung)
G17   (XY-Ebene)
G0 Z20.000
G0 X0.000 Y0.000 A0.000
T1 M6   (Werkzeugwechsel)
G54   (Werkstücknullpunkt)
G0 X0.000 Y0.000 Z0.000 A0.000
S3000 M3   (Spindel EIN, Schleifscheibe)

(Schleifdurchgang 1, Z=-0.050)
G1 Z-0.050 F200.000
(Schneide 1)
G1 X0.000 A0.000 F200.000
G1 X10.000 A20.000 F200.000
G0 Z1.450
G0 X0.000 A0.500
G1 Z-0.250 F200.000
G1 X10.000 A20.500 F200.000
G0 Z1.250
G0 X0.000 A1.000
G1 Z-0.450 F200.000
G1 X10.000 A21.000 F200.000
G0 Z1.050
G0 X0.000 A1.500
G1 Z-0.650 F200.000
G1 X10.000 A21.500 F200.000
G0 Z0.850
G0 X0.000 A2.000
G1 Z-0.850 F200.000
G1 X10.000 A22.000 F200.000
G0 Z0.650
G0 X0.000 A2.500
G1 Z-1.000 F200.000
G1 X10.000 A22.500 F200.000
G0 Z0.500
G0 X0.000 A3.000
G1 Z-1.000 F200.000
G1 X10.000 A23.000 F200.000
G0 Z0.500
G0 X0.000 A3.500
G1 Z-1.000 F200.000
G1 X10.000 A23.500 F200.000
G0 Z0.500
G0 X0.000 A4.000
G1 Z-1.000 F200.000
G1 X10.000 A24.000 F200.000
G0 Z0.500
G0 X0.000 A4.500
G1 Z-1.000 F200.000
G1 X10.000 A24.500 F200.000
G0 Z0.500
G0 X0.000 A5.000
G1 Z-1.000 F200.000
G1 X10.000 A25.000 F200.000
G0 Z0.500
G0 Z-0.050
G0 Z1.450
G0 X0.000
G0 A90.000

(Schneide 2)
G1 X0.000 A90.000 F200.000
G1 X10.000 A110.000 F200.000
G0 Z1.450
G0 X0.000 A90.500
G1 Z-0.250 F200.000
G1 X10.000 A110.500 F200.000
G0 Z1.250
G0 X0.000 A91.000
G1 Z-0.450 F200.000
G1 X10.000 A111.000 F200.000
G0 Z1.050
G0 X0.000 A91.500
G1 Z-0.650 F200.000
G1 X10.000 A111.500 F200.000
G0 Z0.850
G0 X0.000 A92.000
G1 Z-0.850 F200.000
G1 X10.000 A112.000 F200.000
G0 Z0.650
G0 X0.000 A92.500
G1 Z-1.000 F200.000
G1 X10.000 A112.500 F200.000
G0 Z0.500
G0 X0.000 A93.000
G1 Z-1.000 F200.000
G1 X10.000 A113.000 F200.000
G0 Z0.500
G0 X0.000 A93.500
G1 Z-1.000 F200.000
G1 X10.000 A113.500 F200.000
G0 Z0.500
G0 X0.000 A94.000
G1 Z-1.000 F200.000
G1 X10.000 A114.000 F200.000
G0 Z0.500
G0 X0.000 A94.500
G1 Z-1.000 F200.000
G1 X10.000 A114.500 F200.000
G0 Z0.500
G0 X0.000 A95.000
G1 Z-1.000 F200.000
G1 X10.000 A115.000 F200.000
G0 Z0.500
G0 Z-0.050
G0 Z1.450
G0 X0.000
G0 A180.000

(Schneide 3)
G1 X0.000 A180.000 F200.000
G1 X10.000 A200.000 F200.000
G0 Z1.450
G0 X0.000 A180.500
G1 Z-0.250 F200.000
G1 X10.000 A200.500 F200.000
G0 Z1.250
G0 X0.000 A181.000
G1 Z-0.450 F200.000
G1 X10.000 A201.000 F200.000
G0 Z1.050
G0 X0.000 A181.500
G1 Z-0.650 F200.000
G1 X10.000 A201.500 F200.000
G0 Z0.850
G0 X0.000 A182.000
G1 Z-0.850 F200.000
G1 X10.000 A202.000 F200.000
G0 Z0.650
G0 X0.000 A182.500
G1 Z-1.000 F200.000
G1 X10.000 A202.500 F200.000
G0 Z0.500
G0 X0.000 A183.000
G1 Z-1.000 F200.000
G1 X10.000 A203.000 F200.000
G0 Z0.500
G0 X0.000 A183.500
G1 Z-1.000 F200.000
G1 X10.000 A203.500 F200.000
G0 Z0.500
G0 X0.000 A184.000
G1 Z-1.000 F200.000
G1 X10.000 A204.000 F200.000
G0 Z0.500
G0 X0.000 A184.500
G1 Z-1.000 F200.000
G1 X10.000 A204.500 F200.000
G0 Z0.500
G0 X0.000 A185.000
G1 Z-1.000 F200.000
G1 X10.000 A205.000 F200.000
G0 Z0.500
G0 Z-0.050
G0 Z1.450
G0 X0.000
G0 A270.000

(Schneide 4)
G1 X0.000 A270.000 F200.000
G1 X10.000 A290.000 F200.000
G0 Z1.450
G0 X0.000 A270.500
G1 Z-0.250 F200.000
G1 X10.000 A290.500 F200.000
G0 Z1.250
G0 X0.000 A271.000
G1 Z-0.450 F200.000
G1 X10.000 A291.000 F200.000
G0 Z1.050
G0 X0.000 A271.500
G1 Z-0.650 F200.000
G1 X10.000 A291.500 F200.000
G0 Z0.850
G0 X0.000 A272.000
G1 Z-0.850 F200.000
G1 X10.000 A292.000 F200.000
G0 Z0.650
G0 X0.000 A272.500
G1 Z-1.000 F200.000
G1 X10.000 A292.500 F200.000
G0 Z0.500
G0 X0.000 A273.000
G1 Z-1.000 F200.000
G1 X10.000 A293.000 F200.000
G0 Z0.500
G0 X0.000 A273.500
G1 Z-1.000 F200.000
G1 X10.000 A293.500 F200.000
G0 Z0.500
G0 X0.000 A274.000
G1 Z-1.000 F200.000
G1 X10.000 A294.000 F200.000
G0 Z0.500
G0 X0.000 A274.500
G1 Z-1.000 F200.000
G1 X10.000 A294.500 F200.000
G0 Z0.500
G0 X0.000 A275.000
G1 Z-1.000 F200.000
G1 X10.000 A295.000 F200.000
G0 Z0.500
G0 Z-0.050
G0 Z1.450
G0 X0.000
G0 A0.000

G0 Z20.000

(Schleifdurchgang 2, Z=-0.100)
G1 Z-0.100 F200.000
(Schneide 1)
G1 X0.000 A0.000 F200.000
G1 X10.000 A20.000 F200.000
G0 Z1.400
G0 X0.000 A0.500
G1 Z-0.300 F200.000
G1 X10.000 A20.500 F200.000
G0 Z1.200
G0 X0.000 A1.000
G1 Z-0.500 F200.000
G1 X10.000 A21.000 F200.000
G0 Z1.000
G0 X0.000 A1.500
G1 Z-0.700 F200.000
G1 X10.000 A21.500 F200.000
G0 Z0.800
G0 X0.000 A2.000
G1 Z-0.900 F200.000
G1 X10.000 A22.000 F200.000
G0 Z0.600
G0 X0.000 A2.500
G1 Z-1.000 F200.000
G1 X10.000 A22.500 F200.000
G0 Z0.500
G0 X0.000 A3.000
G1 Z-1.000 F200.000
G1 X10.000 A23.000 F200.000
G0 Z0.500
G0 X0.000 A3.500
G1 Z-1.000 F200.000
G1 X10.000 A23.500 F200.000
G0 Z0.500
G0 X0.000 A4.000
G1 Z-1.000 F200.000
G1 X10.000 A24.000 F200.000
G0 Z0.500
G0 X0.000 A4.500
G1 Z-1.000 F200.000
G1 X10.000 A24.500 F200.000
G0 Z0.500
G0 X0.000 A5.000
G1 Z-1.000 F200.000
G1 X10.000 A25.000 F200.000
G0 Z0.500
G0 Z-0.100
G0 Z1.400
G0 X0.000
G0 A90.000

(Schneide 2)
G1 X0.000 A90.000 F200.000
G1 X10.000 A110.000 F200.000
G0 Z1.400
G0 X0.000 A90.500
G1 Z-0.300 F200.000
G1 X10.000 A110.500 F200.000
G0 Z1.200
G0 X0.000 A91.000
G1 Z-0.500 F200.000
G1 X10.000 A111.000 F200.000
G0 Z1.000
G0 X0.000 A91.500
G1 Z-0.700 F200.000
G1 X10.000 A111.500 F200.000
G0 Z0.800
G0 X0.000 A92.000
G1 Z-0.900 F200.000
G1 X10.000 A112.000 F200.000
G0 Z0.600
G0 X0.000 A92.500
G1 Z-1.000 F200.000
G1 X10.000 A112.500 F200.000
G0 Z0.500
G0 X0.000 A93.000
G1 Z-1.000 F200.000
G1 X10.000 A113.000 F200.000
G0 Z0.500
G0 X0.000 A93.500
G1 Z-1.000 F200.000
G1 X10.000 A113.500 F200.000
G0 Z0.500
G0 X0.000 A94.000
G1 Z-1.000 F200.000
G1 X10.000 A114.000 F200.000
G0 Z0.500
G0 X0.000 A94.500
G1 Z-1.000 F200.000
G1 X10.000 A114.500 F200.000
G0 Z0.500
G0 X0.000 A95.000
G1 Z-1.000 F200.000
G1 X10.000 A115.000 F200.000
G0 Z0.500
G0 Z-0.100
G0 Z1.400
G0 X0.000
G0 A180.000

(Schneide 3)
G1 X0.000 A180.000 F200.000
G1 X10.000 A200.000 F200.000
G0 Z1.400
G0 X0.000 A180.500
G1 Z-0.300 F200.000
G1 X10.000 A200.500 F200.000
G0 Z1.200
G0 X0.000 A181.000
G1 Z-0.500 F200.000
G1 X10.000 A201.000 F200.000
G0 Z1.000
G0 X0.000 A181.500
G1 Z-0.700 F200.000
G1 X10.000 A201.500 F200.000
G0 Z0.800
G0 X0.000 A182.000
G1 Z-0.900 F200.000
G1 X10.000 A202.000 F200.000
G0 Z0.600
G0 X0.000 A182.500
G1 Z-1.000 F200.000
G1 X10.000 A202.500 F200.000
G0 Z0.500
G0 X0.000 A183.000
G1 Z-1.000 F200.000
G1 X10.000 A203.000 F200.000
G0 Z0.500
G0 X0.000 A183.500
G1 Z-1.000 F200.000
G1 X10.000 A203.500 F200.000
G0 Z0.500
G0 X0.000 A184.000
G1 Z-1.000 F200.000
G1 X10.000 A204.000 F200.000
G0 Z0.500
G0 X0.000 A184.500
G1 Z-1.000 F200.000
G1 X10.000 A204.500 F200.000
G0 Z0.500
G0 X0.000 A185.000
G1 Z-1.000 F200.000
G1 X10.000 A205.000 F200.000
G0 Z0.500
G0 Z-0.100
G0 Z1.400
G0 X0.000
G0 A270.000

(Schneide 4)
G1 X0.000 A270.000 F200.000
G1 X10.000 A290.000 F200.000
G0 Z1.400
G0 X0.000 A270.500
G1 Z-0.300 F200.000
G1 X10.000 A290.500 F200.000
G0 Z1.200
G0 X0.000 A271.000
G1 Z-0.500 F200.000
G1 X10.000 A291.000 F200.000
G0 Z1.000
G0 X0.000 A271.500
G1 Z-0.700 F200.000
G1 X10.000 A291.500 F200.000
G0 Z0.800
G0 X0.000 A272.000
G1 Z-0.900 F200.000
G1 X10.000 A292.000 F200.000
G0 Z0.600
G0 X0.000 A272.500
G1 Z-1.000 F200.000
G1 X10.000 A292.500 F200.000
G0 Z0.500
G0 X0.000 A273.000
G1 Z-1.000 F200.000
G1 X10.000 A293.000 F200.000
G0 Z0.500
G0 X0.000 A273.500
G1 Z-1.000 F200.000
G1 X10.000 A293.500 F200.000
G0 Z0.500
G0 X0.000 A274.000
G1 Z-1.000 F200.000
G1 X10.000 A294.000 F200.000
G0 Z0.500
G0 X0.000 A274.500
G1 Z-1.000 F200.000
G1 X10.000 A294.500 F200.000
G0 Z0.500
G0 X0.000 A275.000
G1 Z-1.000 F200.000
G1 X10.000 A295.000 F200.000
G0 Z0.500
G0 Z-0.100
G0 Z1.400
G0 X0.000
G0 A0.000

G0 Z20.000

(Schleifdurchgang 3, Z=-0.150)
G1 Z-0.150 F200.000
(Schneide 1)
G1 X0.000 A0.000 F200.000
G1 X10.000 A20.000 F200.000
G0 Z1.350
G0 X0.000 A0.500
G1 Z-0.350 F200.000
G1 X10.000 A20.500 F200.000
G0 Z1.150
G0 X0.000 A1.000
G1 Z-0.550 F200.000
G1 X10.000 A21.000 F200.000
G0 Z0.950
G0 X0.000 A1.500
G1 Z-0.750 F200.000
G1 X10.000 A21.500 F200.000
G0 Z0.750
G0 X0.000 A2.000
G1 Z-0.950 F200.000
G1 X10.000 A22.000 F200.000
G0 Z0.550
G0 X0.000 A2.500
G1 Z-1.000 F200.000
G1 X10.000 A22.500 F200.000
G0 Z0.500
G0 X0.000 A3.000
G1 Z-1.000 F200.000
G1 X10.000 A23.000 F200.000
G0 Z0.500
G0 X0.000 A3.500
G1 Z-1.000 F200.000
G1 X10.000 A23.500 F200.000
G0 Z0.500
G0 X0.000 A4.000
G1 Z-1.000 F200.000
G1 X10.000 A24.000 F200.000
G0 Z0.500
G0 X0.000 A4.500
G1 Z-1.000 F200.000
G1 X10.000 A24.500 F200.000
G0 Z0.500
G0 X0.000 A5.000
G1 Z-1.000 F200.000
G1 X10.000 A25.000 F200.000
G0 Z0.500
G0 Z-0.150
G0 Z1.350
G0 X0.000
G0 A90.000

(Schneide 2)
G1 X0.000 A90.000 F200.000
G1 X10.000 A110.000 F200.000
G0 Z1.350
G0 X0.000 A90.500
G1 Z-0.350 F200.000
G1 X10.000 A110.500 F200.000
G0 Z1.150
G0 X0.000 A91.000
G1 Z-0.550 F200.000
G1 X10.000 A111.000 F200.000
G0 Z0.950
G0 X0.000 A91.500
G1 Z-0.750 F200.000
G1 X10.000 A111.500 F200.000
G0 Z0.750
G0 X0.000 A92.000
G1 Z-0.950 F200.000
G1 X10.000 A112.000 F200.000
G0 Z0.550
G0 X0.000 A92.500
G1 Z-1.000 F200.000
G1 X10.000 A112.500 F200.000
G0 Z0.500
G0 X0.000 A93.000
G1 Z-1.000 F200.000
G1 X10.000 A113.000 F200.000
G0 Z0.500
G0 X0.000 A93.500
G1 Z-1.000 F200.000
G1 X10.000 A113.500 F200.000
G0 Z0.500
G0 X0.000 A94.000
G1 Z-1.000 F200.000
G1 X10.000 A114.000 F200.000
G0 Z0.500
G0 X0.000 A94.500
G1 Z-1.000 F200.000
G1 X10.000 A114.500 F200.000
G0 Z0.500
G0 X0.000 A95.000
G1 Z-1.000 F200.000
G1 X10.000 A115.000 F200.000
G0 Z0.500
G0 Z-0.150
G0 Z1.350
G0 X0.000
G0 A180.000

(Schneide 3)
G1 X0.000 A180.000 F200.000
G1 X10.000 A200.000 F200.000
G0 Z1.350
G0 X0.000 A180.500
G1 Z-0.350 F200.000
G1 X10.000 A200.500 F200.000
G0 Z1.150
G0 X0.000 A181.000
G1 Z-0.550 F200.000
G1 X10.000 A201.000 F200.000
G0 Z0.950
G0 X0.000 A181.500
G1 Z-0.750 F200.000
G1 X10.000 A201.500 F200.000
G0 Z0.750
G0 X0.000 A182.000
G1 Z-0.950 F200.000
G1 X10.000 A202.000 F200.000
G0 Z0.550
G0 X0.000 A182.500
G1 Z-1.000 F200.000
G1 X10.000 A202.500 F200.000
G0 Z0.500
G0 X0.000 A183.000
G1 Z-1.000 F200.000
G1 X10.000 A203.000 F200.000
G0 Z0.500
G0 X0.000 A183.500
G1 Z-1.000 F200.000
G1 X10.000 A203.500 F200.000
G0 Z0.500
G0 X0.000 A184.000
G1 Z-1.000 F200.000
G1 X10.000 A204.000 F200.000
G0 Z0.500
G0 X0.000 A184.500
G1 Z-1.000 F200.000
G1 X10.000 A204.500 F200.000
G0 Z0.500
G0 X0.000 A185.000
G1 Z-1.000 F200.000
G1 X10.000 A205.000 F200.000
G0 Z0.500
G0 Z-0.150
G0 Z1.350
G0 X0.000
G0 A270.000

(Schneide 4)
G1 X0.000 A270.000 F200.000
G1 X10.000 A290.000 F200.000
G0 Z1.350
G0 X0.000 A270.500
G1 Z-0.350 F200.000
G1 X10.000 A290.500 F200.000
G0 Z1.150
G0 X0.000 A271.000
G1 Z-0.550 F200.000
G1 X10.000 A291.000 F200.000
G0 Z0.950
G0 X0.000 A271.500
G1 Z-0.750 F200.000
G1 X10.000 A291.500 F200.000
G0 Z0.750
G0 X0.000 A272.000
G1 Z-0.950 F200.000
G1 X10.000 A292.000 F200.000
G0 Z0.550
G0 X0.000 A272.500
G1 Z-1.000 F200.000
G1 X10.000 A292.500 F200.000
G0 Z0.500
G0 X0.000 A273.000
G1 Z-1.000 F200.000
G1 X10.000 A293.000 F200.000
G0 Z0.500
G0 X0.000 A273.500
G1 Z-1.000 F200.000
G1 X10.000 A293.500 F200.000
G0 Z0.500
G0 X0.000 A274.000
G1 Z-1.000 F200.000
G1 X10.000 A294.000 F200.000
G0 Z0.500
G0 X0.000 A274.500
G1 Z-1.000 F200.000
G1 X10.000 A294.500 F200.000
G0 Z0.500
G0 X0.000 A275.000
G1 Z-1.000 F200.000
G1 X10.000 A295.000 F200.000
G0 Z0.500
G0 Z-0.150
G0 Z1.350
G0 X0.000
G0 A0.000

G0 Z20.000

(Schleifdurchgang 4, Z=-0.200)
G1 Z-0.200 F200.000
(Schneide 1)
G1 X0.000 A0.000 F200.000
G1 X10.000 A20.000 F200.000
G0 Z1.300
G0 X0.000 A0.500
G1 Z-0.400 F200.000
G1 X10.000 A20.500 F200.000
G0 Z1.100
G0 X0.000 A1.000
G1 Z-0.600 F200.000
G1 X10.000 A21.000 F200.000
G0 Z0.900
G0 X0.000 A1.500
G1 Z-0.800 F200.000
G1 X10.000 A21.500 F200.000
G0 Z0.700
G0 X0.000 A2.000
G1 Z-1.000 F200.000
G1 X10.000 A22.000 F200.000
G0 Z0.500
G0 X0.000 A2.500
G1 Z-1.000 F200.000
G1 X10.000 A22.500 F200.000
G0 Z0.500
G0 X0.000 A3.000
G1 Z-1.000 F200.000
G1 X10.000 A23.000 F200.000
G0 Z0.500
G0 X0.000 A3.500
G1 Z-1.000 F200.000
G1 X10.000 A23.500 F200.000
G0 Z0.500
G0 X0.000 A4.000
G1 Z-1.000 F200.000
G1 X10.000 A24.000 F200.000
G0 Z0.500
G0 X0.000 A4.500
G1 Z-1.000 F200.000
G1 X10.000 A24.500 F200.000
G0 Z0.500
G0 X0.000 A5.000
G1 Z-1.000 F200.000
G1 X10.000 A25.000 F200.000
G0 Z0.500
G0 Z-0.200
G0 Z1.300
G0 X0.000
G0 A90.000

(Schneide 2)
G1 X0.000 A90.000 F200.000
G1 X10.000 A110.000 F200.000
G0 Z1.300
G0 X0.000 A90.500
G1 Z-0.400 F200.000
G1 X10.000 A110.500 F200.000
G0 Z1.100
G0 X0.000 A91.000
G1 Z-0.600 F200.000
G1 X10.000 A111.000 F200.000
G0 Z0.900
G0 X0.000 A91.500
G1 Z-0.800 F200.000
G1 X10.000 A111.500 F200.000
G0 Z0.700
G0 X0.000 A92.000
G1 Z-1.000 F200.000
G1 X10.000 A112.000 F200.000
G0 Z0.500
G0 X0.000 A92.500
G1 Z-1.000 F200.000
G1 X10.000 A112.500 F200.000
G0 Z0.500
G0 X0.000 A93.000
G1 Z-1.000 F200.000
G1 X10.000 A113.000 F200.000
G0 Z0.500
G0 X0.000 A93.500
G1 Z-1.000 F200.000
G1 X10.000 A113.500 F200.000
G0 Z0.500
G0 X0.000 A94.000
G1 Z-1.000 F200.000
G1 X10.000 A114.000 F200.000
G0 Z0.500
G0 X0.000 A94.500
G1 Z-1.000 F200.000
G1 X10.000 A114.500 F200.000
G0 Z0.500
G0 X0.000 A95.000
G1 Z-1.000 F200.000
G1 X10.000 A115.000 F200.000
G0 Z0.500
G0 Z-0.200
G0 Z1.300
G0 X0.000
G0 A180.000

(Schneide 3)
G1 X0.000 A180.000 F200.000
G1 X10.000 A200.000 F200.000
G0 Z1.300
G0 X0.000 A180.500
G1 Z-0.400 F200.000
G1 X10.000 A200.500 F200.000
G0 Z1.100
G0 X0.000 A181.000
G1 Z-0.600 F200.000
G1 X10.000 A201.000 F200.000
G0 Z0.900
G0 X0.000 A181.500
G1 Z-0.800 F200.000
G1 X10.000 A201.500 F200.000
G0 Z0.700
G0 X0.000 A182.000
G1 Z-1.000 F200.000
G1 X10.000 A202.000 F200.000
G0 Z0.500
G0 X0.000 A182.500
G1 Z-1.000 F200.000
G1 X10.000 A202.500 F200.000
G0 Z0.500
G0 X0.000 A183.000
G1 Z-1.000 F200.000
G1 X10.000 A203.000 F200.000
G0 Z0.500
G0 X0.000 A183.500
G1 Z-1.000 F200.000
G1 X10.000 A203.500 F200.000
G0 Z0.500
G0 X0.000 A184.000
G1 Z-1.000 F200.000
G1 X10.000 A204.000 F200.000
G0 Z0.500
G0 X0.000 A184.500
G1 Z-1.000 F200.000
G1 X10.000 A204.500 F200.000
G0 Z0.500
G0 X0.000 A185.000
G1 Z-1.000 F200.000
G1 X10.000 A205.000 F200.000
G0 Z0.500
G0 Z-0.200
G0 Z1.300
G0 X0.000
G0 A270.000

(Schneide 4)
G1 X0.000 A270.000 F200.000
G1 X10.000 A290.000 F200.000
G0 Z1.300
G0 X0.000 A270.500
G1 Z-0.400 F200.000
G1 X10.000 A290.500 F200.000
G0 Z1.100
G0 X0.000 A271.000
G1 Z-0.600 F200.000
G1 X10.000 A291.000 F200.000
G0 Z0.900
G0 X0.000 A271.500
G1 Z-0.800 F200.000
G1 X10.000 A291.500 F200.000
G0 Z0.700
G0 X0.000 A272.000
G1 Z-1.000 F200.000
G1 X10.000 A292.000 F200.000
G0 Z0.500
G0 X0.000 A272.500
G1 Z-1.000 F200.000
G1 X10.000 A292.500 F200.000
G0 Z0.500
G0 X0.000 A273.000
G1 Z-1.000 F200.000
G1 X10.000 A293.000 F200.000
G0 Z0.500
G0 X0.000 A273.500
G1 Z-1.000 F200.000
G1 X10.000 A293.500 F200.000
G0 Z0.500
G0 X0.000 A274.000
G1 Z-1.000 F200.000
G1 X10.000 A294.000 F200.000
G0 Z0.500
G0 X0.000 A274.500
G1 Z-1.000 F200.000
G1 X10.000 A294.500 F200.000
G0 Z0.500
G0 X0.000 A275.000
G1 Z-1.000 F200.000
G1 X10.000 A295.000 F200.000
G0 Z0.500
G0 Z-0.200
G0 Z1.300
G0 X0.000
G0 A0.000

G0 Z20.000

(Schleifdurchgang 5, Z=-0.250)
G1 Z-0.250 F200.000
(Schneide 1)
G1 X0.000 A0.000 F200.000
G1 X10.000 A20.000 F200.000
G0 Z1.250
G0 X0.000 A0.500
G1 Z-0.450 F200.000
G1 X10.000 A20.500 F200.000
G0 Z1.050
G0 X0.000 A1.000
G1 Z-0.650 F200.000
G1 X10.000 A21.000 F200.000
G0 Z0.850
G0 X0.000 A1.500
G1 Z-0.850 F200.000
G1 X10.000 A21.500 F200.000
G0 Z0.650
G0 X0.000 A2.000
G1 Z-1.000 F200.000
G1 X10.000 A22.000 F200.000
G0 Z0.500
G0 X0.000 A2.500
G1 Z-1.000 F200.000
G1 X10.000 A22.500 F200.000
G0 Z0.500
G0 X0.000 A3.000
G1 Z-1.000 F200.000
G1 X10.000 A23.000 F200.000
G0 Z0.500
G0 X0.000 A3.500
G1 Z-1.000 F200.000
G1 X10.000 A23.500 F200.000
G0 Z0.500
G0 X0.000 A4.000
G1 Z-1.000 F200.000
G1 X10.000 A24.000 F200.000
G0 Z0.500
G0 X0.000 A4.500
G1 Z-1.000 F200.000
G1 X10.000 A24.500 F200.000
G0 Z0.500
G0 X0.000 A5.000
G1 Z-1.000 F200.000
G1 X10.000 A25.000 F200.000
G0 Z0.500
G0 Z-0.250
G0 Z1.250
G0 X0.000
G0 A90.000

(Schneide 2)
G1 X0.000 A90.000 F200.000
G1 X10.000 A110.000 F200.000
G0 Z1.250
G0 X0.000 A90.500
G1 Z-0.450 F200.000
G1 X10.000 A110.500 F200.000
G0 Z1.050
G0 X0.000 A91.000
G1 Z-0.650 F200.000
G1 X10.000 A111.000 F200.000
G0 Z0.850
G0 X0.000 A91.500
G1 Z-0.850 F200.000
G1 X10.000 A111.500 F200.000
G0 Z0.650
G0 X0.000 A92.000
G1 Z-1.000 F200.000
G1 X10.000 A112.000 F200.000
G0 Z0.500
G0 X0.000 A92.500
G1 Z-1.000 F200.000
G1 X10.000 A112.500 F200.000
G0 Z0.500
G0 X0.000 A93.000
G1 Z-1.000 F200.000
G1 X10.000 A113.000 F200.000
G0 Z0.500
G0 X0.000 A93.500
G1 Z-1.000 F200.000
G1 X10.000 A113.500 F200.000
G0 Z0.500
G0 X0.000 A94.000
G1 Z-1.000 F200.000
G1 X10.000 A114.000 F200.000
G0 Z0.500
G0 X0.000 A94.500
G1 Z-1.000 F200.000
G1 X10.000 A114.500 F200.000
G0 Z0.500
G0 X0.000 A95.000
G1 Z-1.000 F200.000
G1 X10.000 A115.000 F200.000
G0 Z0.500
G0 Z-0.250
G0 Z1.250
G0 X0.000
G0 A180.000

(Schneide 3)
G1 X0.000 A180.000 F200.000
G1 X10.000 A200.000 F200.000
G0 Z1.250
G0 X0.000 A180.500
G1 Z-0.450 F200.000
G1 X10.000 A200.500 F200.000
G0 Z1.050
G0 X0.000 A181.000
G1 Z-0.650 F200.000
G1 X10.000 A201.000 F200.000
G0 Z0.850
G0 X0.000 A181.500
G1 Z-0.850 F200.000
G1 X10.000 A201.500 F200.000
G0 Z0.650
G0 X0.000 A182.000
G1 Z-1.000 F200.000
G1 X10.000 A202.000 F200.000
G0 Z0.500
G0 X0.000 A182.500
G1 Z-1.000 F200.000
G1 X10.000 A202.500 F200.000
G0 Z0.500
G0 X0.000 A183.000
G1 Z-1.000 F200.000
G1 X10.000 A203.000 F200.000
G0 Z0.500
G0 X0.000 A183.500
G1 Z-1.000 F200.000
G1 X10.000 A203.500 F200.000
G0 Z0.500
G0 X0.000 A184.000
G1 Z-1.000 F200.000
G1 X10.000 A204.000 F200.000
G0 Z0.500
G0 X0.000 A184.500
G1 Z-1.000 F200.000
G1 X10.000 A204.500 F200.000
G0 Z0.500
G0 X0.000 A185.000
G1 Z-1.000 F200.000
G1 X10.000 A205.000 F200.000
G0 Z0.500
G0 Z-0.250
G0 Z1.250
G0 X0.000
G0 A270.000

(Schneide 4)
G1 X0.000 A270.000 F200.000
G1 X10.000 A290.000 F200.000
G0 Z1.250
G0 X0.000 A270.500
G1 Z-0.450 F200.000
G1 X10.000 A290.500 F200.000
G0 Z1.050
G0 X0.000 A271.000
G1 Z-0.650 F200.000
G1 X10.000 A291.000 F200.000
G0 Z0.850
G0 X0.000 A271.500
G1 Z-0.850 F200.000
G1 X10.000 A291.500 F200.000
G0 Z0.650
G0 X0.000 A272.000
G1 Z-1.000 F200.000
G1 X10.000 A292.000 F200.000
G0 Z0.500
G0 X0.000 A272.500
G1 Z-1.000 F200.000
G1 X10.000 A292.500 F200.000
G0 Z0.500
G0 X0.000 A273.000
G1 Z-1.000 F200.000
G1 X10.000 A293.000 F200.000
G0 Z0.500
G0 X0.000 A273.500
G1 Z-1.000 F200.000
G1 X10.000 A293.500 F200.000
G0 Z0.500
G0 X0.000 A274.000
G1 Z-1.000 F200.000
G1 X10.000 A294.000 F200.000
G0 Z0.500
G0 X0.000 A274.500
G1 Z-1.000 F200.000
G1 X10.000 A294.500 F200.000
G0 Z0.500
G0 X0.000 A275.000
G1 Z-1.000 F200.000
G1 X10.000 A295.000 F200.000
G0 Z0.500
G0 Z-0.250
G0 Z1.250
G0 X0.000
G0 A0.000

G0 Z20.000

(Schleifdurchgang 6, Z=-0.300)
G1 Z-0.300 F200.000
(Schneide 1)
G1 X0.000 A0.000 F200.000
G1 X10.000 A20.000 F200.000
G0 Z1.200
G0 X0.000 A0.500
G1 Z-0.500 F200.000
G1 X10.000 A20.500 F200.000
G0 Z1.000
G0 X0.000 A1.000
G1 Z-0.700 F200.000
G1 X10.000 A21.000 F200.000
G0 Z0.800
G0 X0.000 A1.500
G1 Z-0.900 F200.000
G1 X10.000 A21.500 F200.000
G0 Z0.600
G0 X0.000 A2.000
G1 Z-1.000 F200.000
G1 X10.000 A22.000 F200.000
G0 Z0.500
G0 X0.000 A2.500
G1 Z-1.000 F200.000
G1 X10.000 A22.500 F200.000
G0 Z0.500
G0 X0.000 A3.000
G1 Z-1.000 F200.000
G1 X10.000 A23.000 F200.000
G0 Z0.500
G0 X0.000 A3.500
G1 Z-1.000 F200.000
G1 X10.000 A23.500 F200.000
G0 Z0.500
G0 X0.000 A4.000
G1 Z-1.000 F200.000
G1 X10.000 A24.000 F200.000
G0 Z0.500
G0 X0.000 A4.500
G1 Z-1.000 F200.000
G1 X10.000 A24.500 F200.000
G0 Z0.500
G0 X0.000 A5.000
G1 Z-1.000 F200.000
G1 X10.000 A25.000 F200.000
G0 Z0.500
G0 Z-0.300
G0 Z1.200
G0 X0.000
G0 A90.000

(Schneide 2)
G1 X0.000 A90.000 F200.000
G1 X10.000 A110.000 F200.000
G0 Z1.200
G0 X0.000 A90.500
G1 Z-0.500 F200.000
G1 X10.000 A110.500 F200.000
G0 Z1.000
G0 X0.000 A91.000
G1 Z-0.700 F200.000
G1 X10.000 A111.000 F200.000
G0 Z0.800
G0 X0.000 A91.500
G1 Z-0.900 F200.000
G1 X10.000 A111.500 F200.000
G0 Z0.600
G0 X0.000 A92.000
G1 Z-1.000 F200.000
G1 X10.000 A112.000 F200.000
G0 Z0.500
G0 X0.000 A92.500
G1 Z-1.000 F200.000
G1 X10.000 A112.500 F200.000
G0 Z0.500
G0 X0.000 A93.000
G1 Z-1.000 F200.000
G1 X10.000 A113.000 F200.000
G0 Z0.500
G0 X0.000 A93.500
G1 Z-1.000 F200.000
G1 X10.000 A113.500 F200.000
G0 Z0.500
G0 X0.000 A94.000
G1 Z-1.000 F200.000
G1 X10.000 A114.000 F200.000
G0 Z0.500
G0 X0.000 A94.500
G1 Z-1.000 F200.000
G1 X10.000 A114.500 F200.000
G0 Z0.500
G0 X0.000 A95.000
G1 Z-1.000 F200.000
G1 X10.000 A115.000 F200.000
G0 Z0.500
G0 Z-0.300
G0 Z1.200
G0 X0.000
G0 A180.000

(Schneide 3)
G1 X0.000 A180.000 F200.000
G1 X10.000 A200.000 F200.000
G0 Z1.200
G0 X0.000 A180.500
G1 Z-0.500 F200.000
G1 X10.000 A200.500 F200.000
G0 Z1.000
G0 X0.000 A181.000
G1 Z-0.700 F200.000
G1 X10.000 A201.000 F200.000
G0 Z0.800
G0 X0.000 A181.500
G1 Z-0.900 F200.000
G1 X10.000 A201.500 F200.000
G0 Z0.600
G0 X0.000 A182.000
G1 Z-1.000 F200.000
G1 X10.000 A202.000 F200.000
G0 Z0.500
G0 X0.000 A182.500
G1 Z-1.000 F200.000
G1 X10.000 A202.500 F200.000
G0 Z0.500
G0 X0.000 A183.000
G1 Z-1.000 F200.000
G1 X10.000 A203.000 F200.000
G0 Z0.500
G0 X0.000 A183.500
G1 Z-1.000 F200.000
G1 X10.000 A203.500 F200.000
G0 Z0.500
G0 X0.000 A184.000
G1 Z-1.000 F200.000
G1 X10.000 A204.000 F200.000
G0 Z0.500
G0 X0.000 A184.500
G1 Z-1.000 F200.000
G1 X10.000 A204.500 F200.000
G0 Z0.500
G0 X0.000 A185.000
G1 Z-1.000 F200.000
G1 X10.000 A205.000 F200.000
G0 Z0.500
G0 Z-0.300
G0 Z1.200
G0 X0.000
G0 A270.000

(Schneide 4)
G1 X0.000 A270.000 F200.000
G1 X10.000 A290.000 F200.000
G0 Z1.200
G0 X0.000 A270.500
G1 Z-0.500 F200.000
G1 X10.000 A290.500 F200.000
G0 Z1.000
G0 X0.000 A271.000
G1 Z-0.700 F200.000
G1 X10.000 A291.000 F200.000
G0 Z0.800
G0 X0.000 A271.500
G1 Z-0.900 F200.000
G1 X10.000 A291.500 F200.000
G0 Z0.600
G0 X0.000 A272.000
G1 Z-1.000 F200.000
G1 X10.000 A292.000 F200.000
G0 Z0.500
G0 X0.000 A272.500
G1 Z-1.000 F200.000
G1 X10.000 A292.500 F200.000
G0 Z0.500
G0 X0.000 A273.000
G1 Z-1.000 F200.000
G1 X10.000 A293.000 F200.000
G0 Z0.500
G0 X0.000 A273.500
G1 Z-1.000 F200.000
G1 X10.000 A293.500 F200.000
G0 Z0.500
G0 X0.000 A274.000
G1 Z-1.000 F200.000
G1 X10.000 A294.000 F200.000
G0 Z0.500
G0 X0.000 A274.500
G1 Z-1.000 F200.000
G1 X10.000 A294.500 F200.000
G0 Z0.500
G0 X0.000 A275.000
G1 Z-1.000 F200.000
G1 X10.000 A295.000 F200.000
G0 Z0.500
G0 Z-0.300
G0 Z1.200
G0 X0.000
G0 A0.000

G0 Z20.000

(Schleifdurchgang 7, Z=-0.350)
G1 Z-0.350 F200.000
(Schneide 1)
G1 X0.000 A0.000 F200.000
G1 X10.000 A20.000 F200.000
G0 Z1.150
G0 X0.000 A0.500
G1 Z-0.550 F200.000
G1 X10.000 A20.500 F200.000
G0 Z0.950
G0 X0.000 A1.000
G1 Z-0.750 F200.000
G1 X10.000 A21.000 F200.000
G0 Z0.750
G0 X0.000 A1.500
G1 Z-0.950 F200.000
G1 X10.000 A21.500 F200.000
G0 Z0.550
G0 X0.000 A2.000
G1 Z-1.000 F200.000
G1 X10.000 A22.000 F200.000
G0 Z0.500
G0 X0.000 A2.500
G1 Z-1.000 F200.000
G1 X10.000 A22.500 F200.000
G0 Z0.500
G0 X0.000 A3.000
G1 Z-1.000 F200.000
G1 X10.000 A23.000 F200.000
G0 Z0.500
G0 X0.000 A3.500
G1 Z-1.000 F200.000
G1 X10.000 A23.500 F200.000
G0 Z0.500
G0 X0.000 A4.000
G1 Z-1.000 F200.000
G1 X10.000 A24.000 F200.000
G0 Z0.500
G0 X0.000 A4.500
G1 Z-1.000 F200.000
G1 X10.000 A24.500 F200.000
G0 Z0.500
G0 X0.000 A5.000
G1 Z-1.000 F200.000
G1 X10.000 A25.000 F200.000
G0 Z0.500
G0 Z-0.350
G0 Z1.150
G0 X0.000
G0 A90.000

(Schneide 2)
G1 X0.000 A90.000 F200.000
G1 X10.000 A110.000 F200.000
G0 Z1.150
G0 X0.000 A90.500
G1 Z-0.550 F200.000
G1 X10.000 A110.500 F200.000
G0 Z0.950
G0 X0.000 A91.000
G1 Z-0.750 F200.000
G1 X10.000 A111.000 F200.000
G0 Z0.750
G0 X0.000 A91.500
G1 Z-0.950 F200.000
G1 X10.000 A111.500 F200.000
G0 Z0.550
G0 X0.000 A92.000
G1 Z-1.000 F200.000
G1 X10.000 A112.000 F200.000
G0 Z0.500
G0 X0.000 A92.500
G1 Z-1.000 F200.000
G1 X10.000 A112.500 F200.000
G0 Z0.500
G0 X0.000 A93.000
G1 Z-1.000 F200.000
G1 X10.000 A113.000 F200.000
G0 Z0.500
G0 X0.000 A93.500
G1 Z-1.000 F200.000
G1 X10.000 A113.500 F200.000
G0 Z0.500
G0 X0.000 A94.000
G1 Z-1.000 F200.000
G1 X10.000 A114.000 F200.000
G0 Z0.500
G0 X0.000 A94.500
G1 Z-1.000 F200.000
G1 X10.000 A114.500 F200.000
G0 Z0.500
G0 X0.000 A95.000
G1 Z-1.000 F200.000
G1 X10.000 A115.000 F200.000
G0 Z0.500
G0 Z-0.350
G0 Z1.150
G0 X0.000
G0 A180.000

(Schneide 3)
G1 X0.000 A180.000 F200.000
G1 X10.000 A200.000 F200.000
G0 Z1.150
G0 X0.000 A180.500
G1 Z-0.550 F200.000
G1 X10.000 A200.500 F200.000
G0 Z0.950
G0 X0.000 A181.000
G1 Z-0.750 F200.000
G1 X10.000 A201.000 F200.000
G0 Z0.750
G0 X0.000 A181.500
G1 Z-0.950 F200.000
G1 X10.000 A201.500 F200.000
G0 Z0.550
G0 X0.000 A182.000
G1 Z-1.000 F200.000
G1 X10.000 A202.000 F200.000
G0 Z0.500
G0 X0.000 A182.500
G1 Z-1.000 F200.000
G1 X10.000 A202.500 F200.000
G0 Z0.500
G0 X0.000 A183.000
G1 Z-1.000 F200.000
G1 X10.000 A203.000 F200.000
G0 Z0.500
G0 X0.000 A183.500
G1 Z-1.000 F200.000
G1 X10.000 A203.500 F200.000
G0 Z0.500
G0 X0.000 A184.000
G1 Z-1.000 F200.000
G1 X10.000 A204.000 F200.000
G0 Z0.500
G0 X0.000 A184.500
G1 Z-1.000 F200.000
G1 X10.000 A204.500 F200.000
G0 Z0.500
G0 X0.000 A185.000
G1 Z-1.000 F200.000
G1 X10.000 A205.000 F200.000
G0 Z0.500
G0 Z-0.350
G0 Z1.150
G0 X0.000
G0 A270.000

(Schneide 4)
G1 X0.000 A270.000 F200.000
G1 X10.000 A290.000 F200.000
G0 Z1.150
G0 X0.000 A270.500
G1 Z-0.550 F200.000
G1 X10.000 A290.500 F200.000
G0 Z0.950
G0 X0.000 A271.000
G1 Z-0.750 F200.000
G1 X10.000 A291.000 F200.000
G0 Z0.750
G0 X0.000 A271.500
G1 Z-0.950 F200.000
G1 X10.000 A291.500 F200.000
G0 Z0.550
G0 X0.000 A272.000
G1 Z-1.000 F200.000
G1 X10.000 A292.000 F200.000
G0 Z0.500
G0 X0.000 A272.500
G1 Z-1.000 F200.000
G1 X10.000 A292.500 F200.000
G0 Z0.500
G0 X0.000 A273.000
G1 Z-1.000 F200.000
G1 X10.000 A293.000 F200.000
G0 Z0.500
G0 X0.000 A273.500
G1 Z-1.000 F200.000
G1 X10.000 A293.500 F200.000
G0 Z0.500
G0 X0.000 A274.000
G1 Z-1.000 F200.000
G1 X10.000 A294.000 F200.000
G0 Z0.500
G0 X0.000 A274.500
G1 Z-1.000 F200.000
G1 X10.000 A294.500 F200.000
G0 Z0.500
G0 X0.000 A275.000
G1 Z-1.000 F200.000
G1 X10.000 A295.000 F200.000
G0 Z0.500
G0 Z-0.350
G0 Z1.150
G0 X0.000
G0 A0.000

G0 Z20.000

(Schleifdurchgang 8, Z=-0.400)
G1 Z-0.400 F200.000
(Schneide 1)
G1 X0.000 A0.000 F200.000
G1 X10.000 A20.000 F200.000
G0 Z1.100
G0 X0.000 A0.500
G1 Z-0.600 F200.000
G1 X10.000 A20.500 F200.000
G0 Z0.900
G0 X0.000 A1.000
G1 Z-0.800 F200.000
G1 X10.000 A21.000 F200.000
G0 Z0.700
G0 X0.000 A1.500
G1 Z-1.000 F200.000
G1 X10.000 A21.500 F200.000
G0 Z0.500
G0 X0.000 A2.000
G1 Z-1.000 F200.000
G1 X10.000 A22.000 F200.000
G0 Z0.500
G0 X0.000 A2.500
G1 Z-1.000 F200.000
G1 X10.000 A22.500 F200.000
G0 Z0.500
G0 X0.000 A3.000
G1 Z-1.000 F200.000
G1 X10.000 A23.000 F200.000
G0 Z0.500
G0 X0.000 A3.500
G1 Z-1.000 F200.000
G1 X10.000 A23.500 F200.000
G0 Z0.500
G0 X0.000 A4.000
G1 Z-1.000 F200.000
G1 X10.000 A24.000 F200.000
G0 Z0.500
G0 X0.000 A4.500
G1 Z-1.000 F200.000
G1 X10.000 A24.500 F200.000
G0 Z0.500
G0 X0.000 A5.000
G1 Z-1.000 F200.000
G1 X10.000 A25.000 F200.000
G0 Z0.500
G0 Z-0.400
G0 Z1.100
G0 X0.000
G0 A90.000

(Schneide 2)
G1 X0.000 A90.000 F200.000
G1 X10.000 A110.000 F200.000
G0 Z1.100
G0 X0.000 A90.500
G1 Z-0.600 F200.000
G1 X10.000 A110.500 F200.000
G0 Z0.900
G0 X0.000 A91.000
G1 Z-0.800 F200.000
G1 X10.000 A111.000 F200.000
G0 Z0.700
G0 X0.000 A91.500
G1 Z-1.000 F200.000
G1 X10.000 A111.500 F200.000
G0 Z0.500
G0 X0.000 A92.000
G1 Z-1.000 F200.000
G1 X10.000 A112.000 F200.000
G0 Z0.500
G0 X0.000 A92.500
G1 Z-1.000 F200.000
G1 X10.000 A112.500 F200.000
G0 Z0.500
G0 X0.000 A93.000
G1 Z-1.000 F200.000
G1 X10.000 A113.000 F200.000
G0 Z0.500
G0 X0.000 A93.500
G1 Z-1.000 F200.000
G1 X10.000 A113.500 F200.000
G0 Z0.500
G0 X0.000 A94.000
G1 Z-1.000 F200.000
G1 X10.000 A114.000 F200.000
G0 Z0.500
G0 X0.000 A94.500
G1 Z-1.000 F200.000
G1 X10.000 A114.500 F200.000
G0 Z0.500
G0 X0.000 A95.000
G1 Z-1.000 F200.000
G1 X10.000 A115.000 F200.000
G0 Z0.500
G0 Z-0.400
G0 Z1.100
G0 X0.000
G0 A180.000

(Schneide 3)
G1 X0.000 A180.000 F200.000
G1 X10.000 A200.000 F200.000
G0 Z1.100
G0 X0.000 A180.500
G1 Z-0.600 F200.000
G1 X10.000 A200.500 F200.000
G0 Z0.900
G0 X0.000 A181.000
G1 Z-0.800 F200.000
G1 X10.000 A201.000 F200.000
G0 Z0.700
G0 X0.000 A181.500
G1 Z-1.000 F200.000
G1 X10.000 A201.500 F200.000
G0 Z0.500
G0 X0.000 A182.000
G1 Z-1.000 F200.000
G1 X10.000 A202.000 F200.000
G0 Z0.500
G0 X0.000 A182.500
G1 Z-1.000 F200.000
G1 X10.000 A202.500 F200.000
G0 Z0.500
G0 X0.000 A183.000
G1 Z-1.000 F200.000
G1 X10.000 A203.000 F200.000
G0 Z0.500
G0 X0.000 A183.500
G1 Z-1.000 F200.000
G1 X10.000 A203.500 F200.000
G0 Z0.500
G0 X0.000 A184.000
G1 Z-1.000 F200.000
G1 X10.000 A204.000 F200.000
G0 Z0.500
G0 X0.000 A184.500
G1 Z-1.000 F200.000
G1 X10.000 A204.500 F200.000
G0 Z0.500
G0 X0.000 A185.000
G1 Z-1.000 F200.000
G1 X10.000 A205.000 F200.000
G0 Z0.500
G0 Z-0.400
G0 Z1.100
G0 X0.000
G0 A270.000

(Schneide 4)
G1 X0.000 A270.000 F200.000
G1 X10.000 A290.000 F200.000
G0 Z1.100
G0 X0.000 A270.500
G1 Z-0.600 F200.000
G1 X10.000 A290.500 F200.000
G0 Z0.900
G0 X0.000 A271.000
G1 Z-0.800 F200.000
G1 X10.000 A291.000 F200.000
G0 Z0.700
G0 X0.000 A271.500
G1 Z-1.000 F200.000
G1 X10.000 A291.500 F200.000
G0 Z0.500
G0 X0.000 A272.000
G1 Z-1.000 F200.000
G1 X10.000 A292.000 F200.000
G0 Z0.500
G0 X0.000 A272.500
G1 Z-1.000 F200.000
G1 X10.000 A292.500 F200.000
G0 Z0.500
G0 X0.000 A273.000
G1 Z-1.000 F200.000
G1 X10.000 A293.000 F200.000
G0 Z0.500
G0 X0.000 A273.500
G1 Z-1.000 F200.000
G1 X10.000 A293.500 F200.000
G0 Z0.500
G0 X0.000 A274.000
G1 Z-1.000 F200.000
G1 X10.000 A294.000 F200.000
G0 Z0.500
G0 X0.000 A274.500
G1 Z-1.000 F200.000
G1 X10.000 A294.500 F200.000
G0 Z0.500
G0 X0.000 A275.000
G1 Z-1.000 F200.000
G1 X10.000 A295.000 F200.000
G0 Z0.500
G0 Z-0.400
G0 Z1.100
G0 X0.000
G0 A0.000

G0 Z20.000

(Schleifdurchgang 9, Z=-0.450)
G1 Z-0.450 F200.000
(Schneide 1)
G1 X0.000 A0.000 F200.000
G1 X10.000 A20.000 F200.000
G0 Z1.050
G0 X0.000 A0.500
G1 Z-0.650 F200.000
G1 X10.000 A20.500 F200.000
G0 Z0.850
G0 X0.000 A1.000
G1 Z-0.850 F200.000
G1 X10.000 A21.000 F200.000
G0 Z0.650
G0 X0.000 A1.500
G1 Z-1.000 F200.000
G1 X10.000 A21.500 F200.000
G0 Z0.500
G0 X0.000 A2.000
G1 Z-1.000 F200.000
G1 X10.000 A22.000 F200.000
G0 Z0.500
G0 X0.000 A2.500
G1 Z-1.000 F200.000
G1 X10.000 A22.500 F200.000
G0 Z0.500
G0 X0.000 A3.000
G1 Z-1.000 F200.000
G1 X10.000 A23.000 F200.000
G0 Z0.500
G0 X0.000 A3.500
G1 Z-1.000 F200.000
G1 X10.000 A23.500 F200.000
G0 Z0.500
G0 X0.000 A4.000
G1 Z-1.000 F200.000
G1 X10.000 A24.000 F200.000
G0 Z0.500
G0 X0.000 A4.500
G1 Z-1.000 F200.000
G1 X10.000 A24.500 F200.000
G0 Z0.500
G0 X0.000 A5.000
G1 Z-1.000 F200.000
G1 X10.000 A25.000 F200.000
G0 Z0.500
G0 Z-0.450
G0 Z1.050
G0 X0.000
G0 A90.000

(Schneide 2)
G1 X0.000 A90.000 F200.000
G1 X10.000 A110.000 F200.000
G0 Z1.050
G0 X0.000 A90.500
G1 Z-0.650 F200.000
G1 X10.000 A110.500 F200.000
G0 Z0.850
G0 X0.000 A91.000
G1 Z-0.850 F200.000
G1 X10.000 A111.000 F200.000
G0 Z0.650
G0 X0.000 A91.500
G1 Z-1.000 F200.000
G1 X10.000 A111.500 F200.000
G0 Z0.500
G0 X0.000 A92.000
G1 Z-1.000 F200.000
G1 X10.000 A112.000 F200.000
G0 Z0.500
G0 X0.000 A92.500
G1 Z-1.000 F200.000
G1 X10.000 A112.500 F200.000
G0 Z0.500
G0 X0.000 A93.000
G1 Z-1.000 F200.000
G1 X10.000 A113.000 F200.000
G0 Z0.500
G0 X0.000 A93.500
G1 Z-1.000 F200.000
G1 X10.000 A113.500 F200.000
G0 Z0.500
G0 X0.000 A94.000
G1 Z-1.000 F200.000
G1 X10.000 A114.000 F200.000
G0 Z0.500
G0 X0.000 A94.500
G1 Z-1.000 F200.000
G1 X10.000 A114.500 F200.000
G0 Z0.500
G0 X0.000 A95.000
G1 Z-1.000 F200.000
G1 X10.000 A115.000 F200.000
G0 Z0.500
G0 Z-0.450
G0 Z1.050
G0 X0.000
G0 A180.000

(Schneide 3)
G1 X0.000 A180.000 F200.000
G1 X10.000 A200.000 F200.000
G0 Z1.050
G0 X0.000 A180.500
G1 Z-0.650 F200.000
G1 X10.000 A200.500 F200.000
G0 Z0.850
G0 X0.000 A181.000
G1 Z-0.850 F200.000
G1 X10.000 A201.000 F200.000
G0 Z0.650
G0 X0.000 A181.500
G1 Z-1.000 F200.000
G1 X10.000 A201.500 F200.000
G0 Z0.500
G0 X0.000 A182.000
G1 Z-1.000 F200.000
G1 X10.000 A202.000 F200.000
G0 Z0.500
G0 X0.000 A182.500
G1 Z-1.000 F200.000
G1 X10.000 A202.500 F200.000
G0 Z0.500
G0 X0.000 A183.000
G1 Z-1.000 F200.000
G1 X10.000 A203.000 F200.000
G0 Z0.500
G0 X0.000 A183.500
G1 Z-1.000 F200.000
G1 X10.000 A203.500 F200.000
G0 Z0.500
G0 X0.000 A184.000
G1 Z-1.000 F200.000
G1 X10.000 A204.000 F200.000
G0 Z0.500
G0 X0.000 A184.500
G1 Z-1.000 F200.000
G1 X10.000 A204.500 F200.000
G0 Z0.500
G0 X0.000 A185.000
G1 Z-1.000 F200.000
G1 X10.000 A205.000 F200.000
G0 Z0.500
G0 Z-0.450
G0 Z1.050
G0 X0.000
G0 A270.000

(Schneide 4)
G1 X0.000 A270.000 F200.000
G1 X10.000 A290.000 F200.000
G0 Z1.050
G0 X0.000 A270.500
G1 Z-0.650 F200.000
G1 X10.000 A290.500 F200.000
G0 Z0.850
G0 X0.000 A271.000
G1 Z-0.850 F200.000
G1 X10.000 A291.000 F200.000
G0 Z0.650
G0 X0.000 A271.500
G1 Z-1.000 F200.000
G1 X10.000 A291.500 F200.000
G0 Z0.500
G0 X0.000 A272.000
G1 Z-1.000 F200.000
G1 X10.000 A292.000 F200.000
G0 Z0.500
G0 X0.000 A272.500
G1 Z-1.000 F200.000
G1 X10.000 A292.500 F200.000
G0 Z0.500
G0 X0.000 A273.000
G1 Z-1.000 F200.000
G1 X10.000 A293.000 F200.000
G0 Z0.500
G0 X0.000 A273.500
G1 Z-1.000 F200.000
G1 X10.000 A293.500 F200.000
G0 Z0.500
G0 X0.000 A274.000
G1 Z-1.000 F200.000
G1 X10.000 A294.000 F200.000
G0 Z0.500
G0 X0.000 A274.500
G1 Z-1.000 F200.000
G1 X10.000 A294.500 F200.000
G0 Z0.500
G0 X0.000 A275.000
G1 Z-1.000 F200.000
G1 X10.000 A295.000 F200.000
G0 Z0.500
G0 Z-0.450
G0 Z1.050
G0 X0.000
G0 A0.000

G0 Z20.000

(Schleifdurchgang 10, Z=-0.500)
G1 Z-0.500 F200.000
(Schneide 1)
G1 X0.000 A0.000 F200.000
G1 X10.000 A20.000 F200.000
G0 Z1.000
G0 X0.000 A0.500
G1 Z-0.700 F200.000
G1 X10.000 A20.500 F200.000
G0 Z0.800
G0 X0.000 A1.000
G1 Z-0.900 F200.000
G1 X10.000 A21.000 F200.000
G0 Z0.600
G0 X0.000 A1.500
G1 Z-1.000 F200.000
G1 X10.000 A21.500 F200.000
G0 Z0.500
G0 X0.000 A2.000
G1 Z-1.000 F200.000
G1 X10.000 A22.000 F200.000
G0 Z0.500
G0 X0.000 A2.500
G1 Z-1.000 F200.000
G1 X10.000 A22.500 F200.000
G0 Z0.500
G0 X0.000 A3.000
G1 Z-1.000 F200.000
G1 X10.000 A23.000 F200.000
G0 Z0.500
G0 X0.000 A3.500
G1 Z-1.000 F200.000
G1 X10.000 A23.500 F200.000
G0 Z0.500
G0 X0.000 A4.000
G1 Z-1.000 F200.000
G1 X10.000 A24.000 F200.000
G0 Z0.500
G0 X0.000 A4.500
G1 Z-1.000 F200.000
G1 X10.000 A24.500 F200.000
G0 Z0.500
G0 X0.000 A5.000
G1 Z-1.000 F200.000
G1 X10.000 A25.000 F200.000
G0 Z0.500
G0 Z-0.500
G0 Z1.000
G0 X0.000
G0 A90.000

(Schneide 2)
G1 X0.000 A90.000 F200.000
G1 X10.000 A110.000 F200.000
G0 Z1.000
G0 X0.000 A90.500
G1 Z-0.700 F200.000
G1 X10.000 A110.500 F200.000
G0 Z0.800
G0 X0.000 A91.000
G1 Z-0.900 F200.000
G1 X10.000 A111.000 F200.000
G0 Z0.600
G0 X0.000 A91.500
G1 Z-1.000 F200.000
G1 X10.000 A111.500 F200.000
G0 Z0.500
G0 X0.000 A92.000
G1 Z-1.000 F200.000
G1 X10.000 A112.000 F200.000
G0 Z0.500
G0 X0.000 A92.500
G1 Z-1.000 F200.000
G1 X10.000 A112.500 F200.000
G0 Z0.500
G0 X0.000 A93.000
G1 Z-1.000 F200.000
G1 X10.000 A113.000 F200.000
G0 Z0.500
G0 X0.000 A93.500
G1 Z-1.000 F200.000
G1 X10.000 A113.500 F200.000
G0 Z0.500
G0 X0.000 A94.000
G1 Z-1.000 F200.000
G1 X10.000 A114.000 F200.000
G0 Z0.500
G0 X0.000 A94.500
G1 Z-1.000 F200.000
G1 X10.000 A114.500 F200.000
G0 Z0.500
G0 X0.000 A95.000
G1 Z-1.000 F200.000
G1 X10.000 A115.000 F200.000
G0 Z0.500
G0 Z-0.500
G0 Z1.000
G0 X0.000
G0 A180.000

(Schneide 3)
G1 X0.000 A180.000 F200.000
G1 X10.000 A200.000 F200.000
G0 Z1.000
G0 X0.000 A180.500
G1 Z-0.700 F200.000
G1 X10.000 A200.500 F200.000
G0 Z0.800
G0 X0.000 A181.000
G1 Z-0.900 F200.000
G1 X10.000 A201.000 F200.000
G0 Z0.600
G0 X0.000 A181.500
G1 Z-1.000 F200.000
G1 X10.000 A201.500 F200.000
G0 Z0.500
G0 X0.000 A182.000
G1 Z-1.000 F200.000
G1 X10.000 A202.000 F200.000
G0 Z0.500
G0 X0.000 A182.500
G1 Z-1.000 F200.000
G1 X10.000 A202.500 F200.000
G0 Z0.500
G0 X0.000 A183.000
G1 Z-1.000 F200.000
G1 X10.000 A203.000 F200.000
G0 Z0.500
G0 X0.000 A183.500
G1 Z-1.000 F200.000
G1 X10.000 A203.500 F200.000
G0 Z0.500
G0 X0.000 A184.000
G1 Z-1.000 F200.000
G1 X10.000 A204.000 F200.000
G0 Z0.500
G0 X0.000 A184.500
G1 Z-1.000 F200.000
G1 X10.000 A204.500 F200.000
G0 Z0.500
G0 X0.000 A185.000
G1 Z-1.000 F200.000
G1 X10.000 A205.000 F200.000
G0 Z0.500
G0 Z-0.500
G0 Z1.000
G0 X0.000
G0 A270.000

(Schneide 4)
G1 X0.000 A270.000 F200.000
G1 X10.000 A290.000 F200.000
G0 Z1.000
G0 X0.000 A270.500
G1 Z-0.700 F200.000
G1 X10.000 A290.500 F200.000
G0 Z0.800
G0 X0.000 A271.000
G1 Z-0.900 F200.000
G1 X10.000 A291.000 F200.000
G0 Z0.600
G0 X0.000 A271.500
G1 Z-1.000 F200.000
G1 X10.000 A291.500 F200.000
G0 Z0.500
G0 X0.000 A272.000
G1 Z-1.000 F200.000
G1 X10.000 A292.000 F200.000
G0 Z0.500
G0 X0.000 A272.500
G1 Z-1.000 F200.000
G1 X10.000 A292.500 F200.000
G0 Z0.500
G0 X0.000 A273.000
G1 Z-1.000 F200.000
G1 X10.000 A293.000 F200.000
G0 Z0.500
G0 X0.000 A273.500
G1 Z-1.000 F200.000
G1 X10.000 A293.500 F200.000
G0 Z0.500
G0 X0.000 A274.000
G1 Z-1.000 F200.000
G1 X10.000 A294.000 F200.000
G0 Z0.500
G0 X0.000 A274.500
G1 Z-1.000 F200.000
G1 X10.000 A294.500 F200.000
G0 Z0.500
G0 X0.000 A275.000
G1 Z-1.000 F200.000
G1 X10.000 A295.000 F200.000
G0 Z0.500
G0 Z-0.500
G0 Z1.000
G0 X0.000
G0 A0.000

G0 Z20.000

(Schleifdurchgang 11, Z=-0.550)
G1 Z-0.550 F200.000
(Schneide 1)
G1 X0.000 A0.000 F200.000
G1 X10.000 A20.000 F200.000
G0 Z0.950
G0 X0.000 A0.500
G1 Z-0.750 F200.000
G1 X10.000 A20.500 F200.000
G0 Z0.750
G0 X0.000 A1.000
G1 Z-0.950 F200.000
G1 X10.000 A21.000 F200.000
G0 Z0.550
G0 X0.000 A1.500
G1 Z-1.000 F200.000
G1 X10.000 A21.500 F200.000
G0 Z0.500
G0 X0.000 A2.000
G1 Z-1.000 F200.000
G1 X10.000 A22.000 F200.000
G0 Z0.500
G0 X0.000 A2.500
G1 Z-1.000 F200.000
G1 X10.000 A22.500 F200.000
G0 Z0.500
G0 X0.000 A3.000
G1 Z-1.000 F200.000
G1 X10.000 A23.000 F200.000
G0 Z0.500
G0 X0.000 A3.500
G1 Z-1.000 F200.000
G1 X10.000 A23.500 F200.000
G0 Z0.500
G0 X0.000 A4.000
G1 Z-1.000 F200.000
G1 X10.000 A24.000 F200.000
G0 Z0.500
G0 X0.000 A4.500
G1 Z-1.000 F200.000
G1 X10.000 A24.500 F200.000
G0 Z0.500
G0 X0.000 A5.000
G1 Z-1.000 F200.000
G1 X10.000 A25.000 F200.000
G0 Z0.500
G0 Z-0.550
G0 Z0.950
G0 X0.000
G0 A90.000

(Schneide 2)
G1 X0.000 A90.000 F200.000
G1 X10.000 A110.000 F200.000
G0 Z0.950
G0 X0.000 A90.500
G1 Z-0.750 F200.000
G1 X10.000 A110.500 F200.000
G0 Z0.750
G0 X0.000 A91.000
G1 Z-0.950 F200.000
G1 X10.000 A111.000 F200.000
G0 Z0.550
G0 X0.000 A91.500
G1 Z-1.000 F200.000
G1 X10.000 A111.500 F200.000
G0 Z0.500
G0 X0.000 A92.000
G1 Z-1.000 F200.000
G1 X10.000 A112.000 F200.000
G0 Z0.500
G0 X0.000 A92.500
G1 Z-1.000 F200.000
G1 X10.000 A112.500 F200.000
G0 Z0.500
G0 X0.000 A93.000
G1 Z-1.000 F200.000
G1 X10.000 A113.000 F200.000
G0 Z0.500
G0 X0.000 A93.500
G1 Z-1.000 F200.000
G1 X10.000 A113.500 F200.000
G0 Z0.500
G0 X0.000 A94.000
G1 Z-1.000 F200.000
G1 X10.000 A114.000 F200.000
G0 Z0.500
G0 X0.000 A94.500
G1 Z-1.000 F200.000
G1 X10.000 A114.500 F200.000
G0 Z0.500
G0 X0.000 A95.000
G1 Z-1.000 F200.000
G1 X10.000 A115.000 F200.000
G0 Z0.500
G0 Z-0.550
G0 Z0.950
G0 X0.000
G0 A180.000

(Schneide 3)
G1 X0.000 A180.000 F200.000
G1 X10.000 A200.000 F200.000
G0 Z0.950
G0 X0.000 A180.500
G1 Z-0.750 F200.000
G1 X10.000 A200.500 F200.000
G0 Z0.750
G0 X0.000 A181.000
G1 Z-0.950 F200.000
G1 X10.000 A201.000 F200.000
G0 Z0.550
G0 X0.000 A181.500
G1 Z-1.000 F200.000
G1 X10.000 A201.500 F200.000
G0 Z0.500
G0 X0.000 A182.000
G1 Z-1.000 F200.000
G1 X10.000 A202.000 F200.000
G0 Z0.500
G0 X0.000 A182.500
G1 Z-1.000 F200.000
G1 X10.000 A202.500 F200.000
G0 Z0.500
G0 X0.000 A183.000
G1 Z-1.000 F200.000
G1 X10.000 A203.000 F200.000
G0 Z0.500
G0 X0.000 A183.500
G1 Z-1.000 F200.000
G1 X10.000 A203.500 F200.000
G0 Z0.500
G0 X0.000 A184.000
G1 Z-1.000 F200.000
G1 X10.000 A204.000 F200.000
G0 Z0.500
G0 X0.000 A184.500
G1 Z-1.000 F200.000
G1 X10.000 A204.500 F200.000
G0 Z0.500
G0 X0.000 A185.000
G1 Z-1.000 F200.000
G1 X10.000 A205.000 F200.000
G0 Z0.500
G0 Z-0.550
G0 Z0.950
G0 X0.000
G0 A270.000

(Schneide 4)
G1 X0.000 A270.000 F200.000
G1 X10.000 A290.000 F200.000
G0 Z0.950
G0 X0.000 A270.500
G1 Z-0.750 F200.000
G1 X10.000 A290.500 F200.000
G0 Z0.750
G0 X0.000 A271.000
G1 Z-0.950 F200.000
G1 X10.000 A291.000 F200.000
G0 Z0.550
G0 X0.000 A271.500
G1 Z-1.000 F200.000
G1 X10.000 A291.500 F200.000
G0 Z0.500
G0 X0.000 A272.000
G1 Z-1.000 F200.000
G1 X10.000 A292.000 F200.000
G0 Z0.500
G0 X0.000 A272.500
G1 Z-1.000 F200.000
G1 X10.000 A292.500 F200.000
G0 Z0.500
G0 X0.000 A273.000
G1 Z-1.000 F200.000
G1 X10.000 A293.000 F200.000
G0 Z0.500
G0 X0.000 A273.500
G1 Z-1.000 F200.000
G1 X10.000 A293.500 F200.000
G0 Z0.500
G0 X0.000 A274.000
G1 Z-1.000 F200.000
G1 X10.000 A294.000 F200.000
G0 Z0.500
G0 X0.000 A274.500
G1 Z-1.000 F200.000
G1 X10.000 A294.500 F200.000
G0 Z0.500
G0 X0.000 A275.000
G1 Z-1.000 F200.000
G1 X10.000 A295.000 F200.000
G0 Z0.500
G0 Z-0.550
G0 Z0.950
G0 X0.000
G0 A0.000

G0 Z20.000

(Schleifdurchgang 12, Z=-0.600)
G1 Z-0.600 F200.000
(Schneide 1)
G1 X0.000 A0.000 F200.000
G1 X10.000 A20.000 F200.000
G0 Z0.900
G0 X0.000 A0.500
G1 Z-0.800 F200.000
G1 X10.000 A20.500 F200.000
G0 Z0.700
G0 X0.000 A1.000
G1 Z-1.000 F200.000
G1 X10.000 A21.000 F200.000
G0 Z0.500
G0 X0.000 A1.500
G1 Z-1.000 F200.000
G1 X10.000 A21.500 F200.000
G0 Z0.500
G0 X0.000 A2.000
G1 Z-1.000 F200.000
G1 X10.000 A22.000 F200.000
G0 Z0.500
G0 X0.000 A2.500
G1 Z-1.000 F200.000
G1 X10.000 A22.500 F200.000
G0 Z0.500
G0 X0.000 A3.000
G1 Z-1.000 F200.000
G1 X10.000 A23.000 F200.000
G0 Z0.500
G0 X0.000 A3.500
G1 Z-1.000 F200.000
G1 X10.000 A23.500 F200.000
G0 Z0.500
G0 X0.000 A4.000
G1 Z-1.000 F200.000
G1 X10.000 A24.000 F200.000
G0 Z0.500
G0 X0.000 A4.500
G1 Z-1.000 F200.000
G1 X10.000 A24.500 F200.000
G0 Z0.500
G0 X0.000 A5.000
G1 Z-1.000 F200.000
G1 X10.000 A25.000 F200.000
G0 Z0.500
G0 Z-0.600
G0 Z0.900
G0 X0.000
G0 A90.000

(Schneide 2)
G1 X0.000 A90.000 F200.000
G1 X10.000 A110.000 F200.000
G0 Z0.900
G0 X0.000 A90.500
G1 Z-0.800 F200.000
G1 X10.000 A110.500 F200.000
G0 Z0.700
G0 X0.000 A91.000
G1 Z-1.000 F200.000
G1 X10.000 A111.000 F200.000
G0 Z0.500
G0 X0.000 A91.500
G1 Z-1.000 F200.000
G1 X10.000 A111.500 F200.000
G0 Z0.500
G0 X0.000 A92.000
G1 Z-1.000 F200.000
G1 X10.000 A112.000 F200.000
G0 Z0.500
G0 X0.000 A92.500
G1 Z-1.000 F200.000
G1 X10.000 A112.500 F200.000
G0 Z0.500
G0 X0.000 A93.000
G1 Z-1.000 F200.000
G1 X10.000 A113.000 F200.000
G0 Z0.500
G0 X0.000 A93.500
G1 Z-1.000 F200.000
G1 X10.000 A113.500 F200.000
G0 Z0.500
G0 X0.000 A94.000
G1 Z-1.000 F200.000
G1 X10.000 A114.000 F200.000
G0 Z0.500
G0 X0.000 A94.500
G1 Z-1.000 F200.000
G1 X10.000 A114.500 F200.000
G0 Z0.500
G0 X0.000 A95.000
G1 Z-1.000 F200.000
G1 X10.000 A115.000 F200.000
G0 Z0.500
G0 Z-0.600
G0 Z0.900
G0 X0.000
G0 A180.000

(Schneide 3)
G1 X0.000 A180.000 F200.000
G1 X10.000 A200.000 F200.000
G0 Z0.900
G0 X0.000 A180.500
G1 Z-0.800 F200.000
G1 X10.000 A200.500 F200.000
G0 Z0.700
G0 X0.000 A181.000
G1 Z-1.000 F200.000
G1 X10.000 A201.000 F200.000
G0 Z0.500
G0 X0.000 A181.500
G1 Z-1.000 F200.000
G1 X10.000 A201.500 F200.000
G0 Z0.500
G0 X0.000 A182.000
G1 Z-1.000 F200.000
G1 X10.000 A202.000 F200.000
G0 Z0.500
G0 X0.000 A182.500
G1 Z-1.000 F200.000
G1 X10.000 A202.500 F200.000
G0 Z0.500
G0 X0.000 A183.000
G1 Z-1.000 F200.000
G1 X10.000 A203.000 F200.000
G0 Z0.500
G0 X0.000 A183.500
G1 Z-1.000 F200.000
G1 X10.000 A203.500 F200.000
G0 Z0.500
G0 X0.000 A184.000
G1 Z-1.000 F200.000
G1 X10.000 A204.000 F200.000
G0 Z0.500
G0 X0.000 A184.500
G1 Z-1.000 F200.000
G1 X10.000 A204.500 F200.000
G0 Z0.500
G0 X0.000 A185.000
G1 Z-1.000 F200.000
G1 X10.000 A205.000 F200.000
G0 Z0.500
G0 Z-0.600
G0 Z0.900
G0 X0.000
G0 A270.000

(Schneide 4)
G1 X0.000 A270.000 F200.000
G1 X10.000 A290.000 F200.000
G0 Z0.900
G0 X0.000 A270.500
G1 Z-0.800 F200.000
G1 X10.000 A290.500 F200.000
G0 Z0.700
G0 X0.000 A271.000
G1 Z-1.000 F200.000
G1 X10.000 A291.000 F200.000
G0 Z0.500
G0 X0.000 A271.500
G1 Z-1.000 F200.000
G1 X10.000 A291.500 F200.000
G0 Z0.500
G0 X0.000 A272.000
G1 Z-1.000 F200.000
G1 X10.000 A292.000 F200.000
G0 Z0.500
G0 X0.000 A272.500
G1 Z-1.000 F200.000
G1 X10.000 A292.500 F200.000
G0 Z0.500
G0 X0.000 A273.000
G1 Z-1.000 F200.000
G1 X10.000 A293.000 F200.000
G0 Z0.500
G0 X0.000 A273.500
G1 Z-1.000 F200.000
G1 X10.000 A293.500 F200.000
G0 Z0.500
G0 X0.000 A274.000
G1 Z-1.000 F200.000
G1 X10.000 A294.000 F200.000
G0 Z0.500
G0 X0.000 A274.500
G1 Z-1.000 F200.000
G1 X10.000 A294.500 F200.000
G0 Z0.500
G0 X0.000 A275.000
G1 Z-1.000 F200.000
G1 X10.000 A295.000 F200.000
G0 Z0.500
G0 Z-0.600
G0 Z0.900
G0 X0.000
G0 A0.000

G0 Z20.000

(Schleifdurchgang 13, Z=-0.650)
G1 Z-0.650 F200.000
(Schneide 1)
G1 X0.000 A0.000 F200.000
G1 X10.000 A20.000 F200.000
G0 Z0.850
G0 X0.000 A0.500
G1 Z-0.850 F200.000
G1 X10.000 A20.500 F200.000
G0 Z0.650
G0 X0.000 A1.000
G1 Z-1.000 F200.000
G1 X10.000 A21.000 F200.000
G0 Z0.500
G0 X0.000 A1.500
G1 Z-1.000 F200.000
G1 X10.000 A21.500 F200.000
G0 Z0.500
G0 X0.000 A2.000
G1 Z-1.000 F200.000
G1 X10.000 A22.000 F200.000
G0 Z0.500
G0 X0.000 A2.500
G1 Z-1.000 F200.000
G1 X10.000 A22.500 F200.000
G0 Z0.500
G0 X0.000 A3.000
G1 Z-1.000 F200.000
G1 X10.000 A23.000 F200.000
G0 Z0.500
G0 X0.000 A3.500
G1 Z-1.000 F200.000
G1 X10.000 A23.500 F200.000
G0 Z0.500
G0 X0.000 A4.000
G1 Z-1.000 F200.000
G1 X10.000 A24.000 F200.000
G0 Z0.500
G0 X0.000 A4.500
G1 Z-1.000 F200.000
G1 X10.000 A24.500 F200.000
G0 Z0.500
G0 X0.000 A5.000
G1 Z-1.000 F200.000
G1 X10.000 A25.000 F200.000
G0 Z0.500
G0 Z-0.650
G0 Z0.850
G0 X0.000
G0 A90.000

(Schneide 2)
G1 X0.000 A90.000 F200.000
G1 X10.000 A110.000 F200.000
G0 Z0.850
G0 X0.000 A90.500
G1 Z-0.850 F200.000
G1 X10.000 A110.500 F200.000
G0 Z0.650
G0 X0.000 A91.000
G1 Z-1.000 F200.000
G1 X10.000 A111.000 F200.000
G0 Z0.500
G0 X0.000 A91.500
G1 Z-1.000 F200.000
G1 X10.000 A111.500 F200.000
G0 Z0.500
G0 X0.000 A92.000
G1 Z-1.000 F200.000
G1 X10.000 A112.000 F200.000
G0 Z0.500
G0 X0.000 A92.500
G1 Z-1.000 F200.000
G1 X10.000 A112.500 F200.000
G0 Z0.500
G0 X0.000 A93.000
G1 Z-1.000 F200.000
G1 X10.000 A113.000 F200.000
G0 Z0.500
G0 X0.000 A93.500
G1 Z-1.000 F200.000
G1 X10.000 A113.500 F200.000
G0 Z0.500
G0 X0.000 A94.000
G1 Z-1.000 F200.000
G1 X10.000 A114.000 F200.000
G0 Z0.500
G0 X0.000 A94.500
G1 Z-1.000 F200.000
G1 X10.000 A114.500 F200.000
G0 Z0.500
G0 X0.000 A95.000
G1 Z-1.000 F200.000
G1 X10.000 A115.000 F200.000
G0 Z0.500
G0 Z-0.650
G0 Z0.850
G0 X0.000
G0 A180.000

(Schneide 3)
G1 X0.000 A180.000 F200.000
G1 X10.000 A200.000 F200.000
G0 Z0.850
G0 X0.000 A180.500
G1 Z-0.850 F200.000
G1 X10.000 A200.500 F200.000
G0 Z0.650
G0 X0.000 A181.000
G1 Z-1.000 F200.000
G1 X10.000 A201.000 F200.000
G0 Z0.500
G0 X0.000 A181.500
G1 Z-1.000 F200.000
G1 X10.000 A201.500 F200.000
G0 Z0.500
G0 X0.000 A182.000
G1 Z-1.000 F200.000
G1 X10.000 A202.000 F200.000
G0 Z0.500
G0 X0.000 A182.500
G1 Z-1.000 F200.000
G1 X10.000 A202.500 F200.000
G0 Z0.500
G0 X0.000 A183.000
G1 Z-1.000 F200.000
G1 X10.000 A203.000 F200.000
G0 Z0.500
G0 X0.000 A183.500
G1 Z-1.000 F200.000
G1 X10.000 A203.500 F200.000
G0 Z0.500
G0 X0.000 A184.000
G1 Z-1.000 F200.000
G1 X10.000 A204.000 F200.000
G0 Z0.500
G0 X0.000 A184.500
G1 Z-1.000 F200.000
G1 X10.000 A204.500 F200.000
G0 Z0.500
G0 X0.000 A185.000
G1 Z-1.000 F200.000
G1 X10.000 A205.000 F200.000
G0 Z0.500
G0 Z-0.650
G0 Z0.850
G0 X0.000
G0 A270.000

(Schneide 4)
G1 X0.000 A270.000 F200.000
G1 X10.000 A290.000 F200.000
G0 Z0.850
G0 X0.000 A270.500
G1 Z-0.850 F200.000
G1 X10.000 A290.500 F200.000
G0 Z0.650
G0 X0.000 A271.000
G1 Z-1.000 F200.000
G1 X10.000 A291.000 F200.000
G0 Z0.500
G0 X0.000 A271.500
G1 Z-1.000 F200.000
G1 X10.000 A291.500 F200.000
G0 Z0.500
G0 X0.000 A272.000
G1 Z-1.000 F200.000
G1 X10.000 A292.000 F200.000
G0 Z0.500
G0 X0.000 A272.500
G1 Z-1.000 F200.000
G1 X10.000 A292.500 F200.000
G0 Z0.500
G0 X0.000 A273.000
G1 Z-1.000 F200.000
G1 X10.000 A293.000 F200.000
G0 Z0.500
G0 X0.000 A273.500
G1 Z-1.000 F200.000
G1 X10.000 A293.500 F200.000
G0 Z0.500
G0 X0.000 A274.000
G1 Z-1.000 F200.000
G1 X10.000 A294.000 F200.000
G0 Z0.500
G0 X0.000 A274.500
G1 Z-1.000 F200.000
G1 X10.000 A294.500 F200.000
G0 Z0.500
G0 X0.000 A275.000
G1 Z-1.000 F200.000
G1 X10.000 A295.000 F200.000
G0 Z0.500
G0 Z-0.650
G0 Z0.850
G0 X0.000
G0 A0.000

G0 Z20.000

(Schleifdurchgang 14, Z=-0.700)
G1 Z-0.700 F200.000
(Schneide 1)
G1 X0.000 A0.000 F200.000
G1 X10.000 A20.000 F200.000
G0 Z0.800
G0 X0.000 A0.500
G1 Z-0.900 F200.000
G1 X10.000 A20.500 F200.000
G0 Z0.600
G0 X0.000 A1.000
G1 Z-1.000 F200.000
G1 X10.000 A21.000 F200.000
G0 Z0.500
G0 X0.000 A1.500
G1 Z-1.000 F200.000
G1 X10.000 A21.500 F200.000
G0 Z0.500
G0 X0.000 A2.000
G1 Z-1.000 F200.000
G1 X10.000 A22.000 F200.000
G0 Z0.500
G0 X0.000 A2.500
G1 Z-1.000 F200.000
G1 X10.000 A22.500 F200.000
G0 Z0.500
G0 X0.000 A3.000
G1 Z-1.000 F200.000
G1 X10.000 A23.000 F200.000
G0 Z0.500
G0 X0.000 A3.500
G1 Z-1.000 F200.000
G1 X10.000 A23.500 F200.000
G0 Z0.500
G0 X0.000 A4.000
G1 Z-1.000 F200.000
G1 X10.000 A24.000 F200.000
G0 Z0.500
G0 X0.000 A4.500
G1 Z-1.000 F200.000
G1 X10.000 A24.500 F200.000
G0 Z0.500
G0 X0.000 A5.000
G1 Z-1.000 F200.000
G1 X10.000 A25.000 F200.000
G0 Z0.500
G0 Z-0.700
G0 Z0.800
G0 X0.000
G0 A90.000

(Schneide 2)
G1 X0.000 A90.000 F200.000
G1 X10.000 A110.000 F200.000
G0 Z0.800
G0 X0.000 A90.500
G1 Z-0.900 F200.000
G1 X10.000 A110.500 F200.000
G0 Z0.600
G0 X0.000 A91.000
G1 Z-1.000 F200.000
G1 X10.000 A111.000 F200.000
G0 Z0.500
G0 X0.000 A91.500
G1 Z-1.000 F200.000
G1 X10.000 A111.500 F200.000
G0 Z0.500
G0 X0.000 A92.000
G1 Z-1.000 F200.000
G1 X10.000 A112.000 F200.000
G0 Z0.500
G0 X0.000 A92.500
G1 Z-1.000 F200.000
G1 X10.000 A112.500 F200.000
G0 Z0.500
G0 X0.000 A93.000
G1 Z-1.000 F200.000
G1 X10.000 A113.000 F200.000
G0 Z0.500
G0 X0.000 A93.500
G1 Z-1.000 F200.000
G1 X10.000 A113.500 F200.000
G0 Z0.500
G0 X0.000 A94.000
G1 Z-1.000 F200.000
G1 X10.000 A114.000 F200.000
G0 Z0.500
G0 X0.000 A94.500
G1 Z-1.000 F200.000
G1 X10.000 A114.500 F200.000
G0 Z0.500
G0 X0.000 A95.000
G1 Z-1.000 F200.000
G1 X10.000 A115.000 F200.000
G0 Z0.500
G0 Z-0.700
G0 Z0.800
G0 X0.000
G0 A180.000

(Schneide 3)
G1 X0.000 A180.000 F200.000
G1 X10.000 A200.000 F200.000
G0 Z0.800
G0 X0.000 A180.500
G1 Z-0.900 F200.000
G1 X10.000 A200.500 F200.000
G0 Z0.600
G0 X0.000 A181.000
G1 Z-1.000 F200.000
G1 X10.000 A201.000 F200.000
G0 Z0.500
G0 X0.000 A181.500
G1 Z-1.000 F200.000
G1 X10.000 A201.500 F200.000
G0 Z0.500
G0 X0.000 A182.000
G1 Z-1.000 F200.000
G1 X10.000 A202.000 F200.000
G0 Z0.500
G0 X0.000 A182.500
G1 Z-1.000 F200.000
G1 X10.000 A202.500 F200.000
G0 Z0.500
G0 X0.000 A183.000
G1 Z-1.000 F200.000
G1 X10.000 A203.000 F200.000
G0 Z0.500
G0 X0.000 A183.500
G1 Z-1.000 F200.000
G1 X10.000 A203.500 F200.000
G0 Z0.500
G0 X0.000 A184.000
G1 Z-1.000 F200.000
G1 X10.000 A204.000 F200.000
G0 Z0.500
G0 X0.000 A184.500
G1 Z-1.000 F200.000
G1 X10.000 A204.500 F200.000
G0 Z0.500
G0 X0.000 A185.000
G1 Z-1.000 F200.000
G1 X10.000 A205.000 F200.000
G0 Z0.500
G0 Z-0.700
G0 Z0.800
G0 X0.000
G0 A270.000

(Schneide 4)
G1 X0.000 A270.000 F200.000
G1 X10.000 A290.000 F200.000
G0 Z0.800
G0 X0.000 A270.500
G1 Z-0.900 F200.000
G1 X10.000 A290.500 F200.000
G0 Z0.600
G0 X0.000 A271.000
G1 Z-1.000 F200.000
G1 X10.000 A291.000 F200.000
G0 Z0.500
G0 X0.000 A271.500
G1 Z-1.000 F200.000
G1 X10.000 A291.500 F200.000
G0 Z0.500
G0 X0.000 A272.000
G1 Z-1.000 F200.000
G1 X10.000 A292.000 F200.000
G0 Z0.500
G0 X0.000 A272.500
G1 Z-1.000 F200.000
G1 X10.000 A292.500 F200.000
G0 Z0.500
G0 X0.000 A273.000
G1 Z-1.000 F200.000
G1 X10.000 A293.000 F200.000
G0 Z0.500
G0 X0.000 A273.500
G1 Z-1.000 F200.000
G1 X10.000 A293.500 F200.000
G0 Z0.500
G0 X0.000 A274.000
G1 Z-1.000 F200.000
G1 X10.000 A294.000 F200.000
G0 Z0.500
G0 X0.000 A274.500
G1 Z-1.000 F200.000
G1 X10.000 A294.500 F200.000
G0 Z0.500
G0 X0.000 A275.000
G1 Z-1.000 F200.000
G1 X10.000 A295.000 F200.000
G0 Z0.500
G0 Z-0.700
G0 Z0.800
G0 X0.000
G0 A0.000

G0 Z20.000

(Schleifdurchgang 15, Z=-0.750)
G1 Z-0.750 F200.000
(Schneide 1)
G1 X0.000 A0.000 F200.000
G1 X10.000 A20.000 F200.000
G0 Z0.750
G0 X0.000 A0.500
G1 Z-0.950 F200.000
G1 X10.000 A20.500 F200.000
G0 Z0.550
G0 X0.000 A1.000
G1 Z-1.000 F200.000
G1 X10.000 A21.000 F200.000
G0 Z0.500
G0 X0.000 A1.500
G1 Z-1.000 F200.000
G1 X10.000 A21.500 F200.000
G0 Z0.500
G0 X0.000 A2.000
G1 Z-1.000 F200.000
G1 X10.000 A22.000 F200.000
G0 Z0.500
G0 X0.000 A2.500
G1 Z-1.000 F200.000
G1 X10.000 A22.500 F200.000
G0 Z0.500
G0 X0.000 A3.000
G1 Z-1.000 F200.000
G1 X10.000 A23.000 F200.000
G0 Z0.500
G0 X0.000 A3.500
G1 Z-1.000 F200.000
G1 X10.000 A23.500 F200.000
G0 Z0.500
G0 X0.000 A4.000
G1 Z-1.000 F200.000
G1 X10.000 A24.000 F200.000
G0 Z0.500
G0 X0.000 A4.500
G1 Z-1.000 F200.000
G1 X10.000 A24.500 F200.000
G0 Z0.500
G0 X0.000 A5.000
G1 Z-1.000 F200.000
G1 X10.000 A25.000 F200.000
G0 Z0.500
G0 Z-0.750
G0 Z0.750
G0 X0.000
G0 A90.000

(Schneide 2)
G1 X0.000 A90.000 F200.000
G1 X10.000 A110.000 F200.000
G0 Z0.750
G0 X0.000 A90.500
G1 Z-0.950 F200.000
G1 X10.000 A110.500 F200.000
G0 Z0.550
G0 X0.000 A91.000
G1 Z-1.000 F200.000
G1 X10.000 A111.000 F200.000
G0 Z0.500
G0 X0.000 A91.500
G1 Z-1.000 F200.000
G1 X10.000 A111.500 F200.000
G0 Z0.500
G0 X0.000 A92.000
G1 Z-1.000 F200.000
G1 X10.000 A112.000 F200.000
G0 Z0.500
G0 X0.000 A92.500
G1 Z-1.000 F200.000
G1 X10.000 A112.500 F200.000
G0 Z0.500
G0 X0.000 A93.000
G1 Z-1.000 F200.000
G1 X10.000 A113.000 F200.000
G0 Z0.500
G0 X0.000 A93.500
G1 Z-1.000 F200.000
G1 X10.000 A113.500 F200.000
G0 Z0.500
G0 X0.000 A94.000
G1 Z-1.000 F200.000
G1 X10.000 A114.000 F200.000
G0 Z0.500
G0 X0.000 A94.500
G1 Z-1.000 F200.000
G1 X10.000 A114.500 F200.000
G0 Z0.500
G0 X0.000 A95.000
G1 Z-1.000 F200.000
G1 X10.000 A115.000 F200.000
G0 Z0.500
G0 Z-0.750
G0 Z0.750
G0 X0.000
G0 A180.000

(Schneide 3)
G1 X0.000 A180.000 F200.000
G1 X10.000 A200.000 F200.000
G0 Z0.750
G0 X0.000 A180.500
G1 Z-0.950 F200.000
G1 X10.000 A200.500 F200.000
G0 Z0.550
G0 X0.000 A181.000
G1 Z-1.000 F200.000
G1 X10.000 A201.000 F200.000
G0 Z0.500
G0 X0.000 A181.500
G1 Z-1.000 F200.000
G1 X10.000 A201.500 F200.000
G0 Z0.500
G0 X0.000 A182.000
G1 Z-1.000 F200.000
G1 X10.000 A202.000 F200.000
G0 Z0.500
G0 X0.000 A182.500
G1 Z-1.000 F200.000
G1 X10.000 A202.500 F200.000
G0 Z0.500
G0 X0.000 A183.000
G1 Z-1.000 F200.000
G1 X10.000 A203.000 F200.000
G0 Z0.500
G0 X0.000 A183.500
G1 Z-1.000 F200.000
G1 X10.000 A203.500 F200.000
G0 Z0.500
G0 X0.000 A184.000
G1 Z-1.000 F200.000
G1 X10.000 A204.000 F200.000
G0 Z0.500
G0 X0.000 A184.500
G1 Z-1.000 F200.000
G1 X10.000 A204.500 F200.000
G0 Z0.500
G0 X0.000 A185.000
G1 Z-1.000 F200.000
G1 X10.000 A205.000 F200.000
G0 Z0.500
G0 Z-0.750
G0 Z0.750
G0 X0.000
G0 A270.000

(Schneide 4)
G1 X0.000 A270.000 F200.000
G1 X10.000 A290.000 F200.000
G0 Z0.750
G0 X0.000 A270.500
G1 Z-0.950 F200.000
G1 X10.000 A290.500 F200.000
G0 Z0.550
G0 X0.000 A271.000
G1 Z-1.000 F200.000
G1 X10.000 A291.000 F200.000
G0 Z0.500
G0 X0.000 A271.500
G1 Z-1.000 F200.000
G1 X10.000 A291.500 F200.000
G0 Z0.500
G0 X0.000 A272.000
G1 Z-1.000 F200.000
G1 X10.000 A292.000 F200.000
G0 Z0.500
G0 X0.000 A272.500
G1 Z-1.000 F200.000
G1 X10.000 A292.500 F200.000
G0 Z0.500
G0 X0.000 A273.000
G1 Z-1.000 F200.000
G1 X10.000 A293.000 F200.000
G0 Z0.500
G0 X0.000 A273.500
G1 Z-1.000 F200.000
G1 X10.000 A293.500 F200.000
G0 Z0.500
G0 X0.000 A274.000
G1 Z-1.000 F200.000
G1 X10.000 A294.000 F200.000
G0 Z0.500
G0 X0.000 A274.500
G1 Z-1.000 F200.000
G1 X10.000 A294.500 F200.000
G0 Z0.500
G0 X0.000 A275.000
G1 Z-1.000 F200.000
G1 X10.000 A295.000 F200.000
G0 Z0.500
G0 Z-0.750
G0 Z0.750
G0 X0.000
G0 A0.000

G0 Z20.000

(Schleifdurchgang 16, Z=-0.800)
G1 Z-0.800 F200.000
(Schneide 1)
G1 X0.000 A0.000 F200.000
G1 X10.000 A20.000 F200.000
G0 Z0.700
G0 X0.000 A0.500
G1 Z-1.000 F200.000
G1 X10.000 A20.500 F200.000
G0 Z0.500
G0 X0.000 A1.000
G1 Z-1.000 F200.000
G1 X10.000 A21.000 F200.000
G0 Z0.500
G0 X0.000 A1.500
G1 Z-1.000 F200.000
G1 X10.000 A21.500 F200.000
G0 Z0.500
G0 X0.000 A2.000
G1 Z-1.000 F200.000
G1 X10.000 A22.000 F200.000
G0 Z0.500
G0 X0.000 A2.500
G1 Z-1.000 F200.000
G1 X10.000 A22.500 F200.000
G0 Z0.500
G0 X0.000 A3.000
G1 Z-1.000 F200.000
G1 X10.000 A23.000 F200.000
G0 Z0.500
G0 X0.000 A3.500
G1 Z-1.000 F200.000
G1 X10.000 A23.500 F200.000
G0 Z0.500
G0 X0.000 A4.000
G1 Z-1.000 F200.000
G1 X10.000 A24.000 F200.000
G0 Z0.500
G0 X0.000 A4.500
G1 Z-1.000 F200.000
G1 X10.000 A24.500 F200.000
G0 Z0.500
G0 X0.000 A5.000
G1 Z-1.000 F200.000
G1 X10.000 A25.000 F200.000
G0 Z0.500
G0 Z-0.800
G0 Z0.700
G0 X0.000
G0 A90.000

(Schneide 2)
G1 X0.000 A90.000 F200.000
G1 X10.000 A110.000 F200.000
G0 Z0.700
G0 X0.000 A90.500
G1 Z-1.000 F200.000
G1 X10.000 A110.500 F200.000
G0 Z0.500
G0 X0.000 A91.000
G1 Z-1.000 F200.000
G1 X10.000 A111.000 F200.000
G0 Z0.500
G0 X0.000 A91.500
G1 Z-1.000 F200.000
G1 X10.000 A111.500 F200.000
G0 Z0.500
G0 X0.000 A92.000
G1 Z-1.000 F200.000
G1 X10.000 A112.000 F200.000
G0 Z0.500
G0 X0.000 A92.500
G1 Z-1.000 F200.000
G1 X10.000 A112.500 F200.000
G0 Z0.500
G0 X0.000 A93.000
G1 Z-1.000 F200.000
G1 X10.000 A113.000 F200.000
G0 Z0.500
G0 X0.000 A93.500
G1 Z-1.000 F200.000
G1 X10.000 A113.500 F200.000
G0 Z0.500
G0 X0.000 A94.000
G1 Z-1.000 F200.000
G1 X10.000 A114.000 F200.000
G0 Z0.500
G0 X0.000 A94.500
G1 Z-1.000 F200.000
G1 X10.000 A114.500 F200.000
G0 Z0.500
G0 X0.000 A95.000
G1 Z-1.000 F200.000
G1 X10.000 A115.000 F200.000
G0 Z0.500
G0 Z-0.800
G0 Z0.700
G0 X0.000
G0 A180.000

(Schneide 3)
G1 X0.000 A180.000 F200.000
G1 X10.000 A200.000 F200.000
G0 Z0.700
G0 X0.000 A180.500
G1 Z-1.000 F200.000
G1 X10.000 A200.500 F200.000
G0 Z0.500
G0 X0.000 A181.000
G1 Z-1.000 F200.000
G1 X10.000 A201.000 F200.000
G0 Z0.500
G0 X0.000 A181.500
G1 Z-1.000 F200.000
G1 X10.000 A201.500 F200.000
G0 Z0.500
G0 X0.000 A182.000
G1 Z-1.000 F200.000
G1 X10.000 A202.000 F200.000
G0 Z0.500
G0 X0.000 A182.500
G1 Z-1.000 F200.000
G1 X10.000 A202.500 F200.000
G0 Z0.500
G0 X0.000 A183.000
G1 Z-1.000 F200.000
G1 X10.000 A203.000 F200.000
G0 Z0.500
G0 X0.000 A183.500
G1 Z-1.000 F200.000
G1 X10.000 A203.500 F200.000
G0 Z0.500
G0 X0.000 A184.000
G1 Z-1.000 F200.000
G1 X10.000 A204.000 F200.000
G0 Z0.500
G0 X0.000 A184.500
G1 Z-1.000 F200.000
G1 X10.000 A204.500 F200.000
G0 Z0.500
G0 X0.000 A185.000
G1 Z-1.000 F200.000
G1 X10.000 A205.000 F200.000
G0 Z0.500
G0 Z-0.800
G0 Z0.700
G0 X0.000
G0 A270.000

(Schneide 4)
G1 X0.000 A270.000 F200.000
G1 X10.000 A290.000 F200.000
G0 Z0.700
G0 X0.000 A270.500
G1 Z-1.000 F200.000
G1 X10.000 A290.500 F200.000
G0 Z0.500
G0 X0.000 A271.000
G1 Z-1.000 F200.000
G1 X10.000 A291.000 F200.000
G0 Z0.500
G0 X0.000 A271.500
G1 Z-1.000 F200.000
G1 X10.000 A291.500 F200.000
G0 Z0.500
G0 X0.000 A272.000
G1 Z-1.000 F200.000
G1 X10.000 A292.000 F200.000
G0 Z0.500
G0 X0.000 A272.500
G1 Z-1.000 F200.000
G1 X10.000 A292.500 F200.000
G0 Z0.500
G0 X0.000 A273.000
G1 Z-1.000 F200.000
G1 X10.000 A293.000 F200.000
G0 Z0.500
G0 X0.000 A273.500
G1 Z-1.000 F200.000
G1 X10.000 A293.500 F200.000
G0 Z0.500
G0 X0.000 A274.000
G1 Z-1.000 F200.000
G1 X10.000 A294.000 F200.000
G0 Z0.500
G0 X0.000 A274.500
G1 Z-1.000 F200.000
G1 X10.000 A294.500 F200.000
G0 Z0.500
G0 X0.000 A275.000
G1 Z-1.000 F200.000
G1 X10.000 A295.000 F200.000
G0 Z0.500
G0 Z-0.800
G0 Z0.700
G0 X0.000
G0 A0.000

G0 Z20.000

(Schleifdurchgang 17, Z=-0.850)
G1 Z-0.850 F200.000
(Schneide 1)
G1 X0.000 A0.000 F200.000
G1 X10.000 A20.000 F200.000
G0 Z0.650
G0 X0.000 A0.500
G1 Z-1.000 F200.000
G1 X10.000 A20.500 F200.000
G0 Z0.500
G0 X0.000 A1.000
G1 Z-1.000 F200.000
G1 X10.000 A21.000 F200.000
G0 Z0.500
G0 X0.000 A1.500
G1 Z-1.000 F200.000
G1 X10.000 A21.500 F200.000
G0 Z0.500
G0 X0.000 A2.000
G1 Z-1.000 F200.000
G1 X10.000 A22.000 F200.000
G0 Z0.500
G0 X0.000 A2.500
G1 Z-1.000 F200.000
G1 X10.000 A22.500 F200.000
G0 Z0.500
G0 X0.000 A3.000
G1 Z-1.000 F200.000
G1 X10.000 A23.000 F200.000
G0 Z0.500
G0 X0.000 A3.500
G1 Z-1.000 F200.000
G1 X10.000 A23.500 F200.000
G0 Z0.500
G0 X0.000 A4.000
G1 Z-1.000 F200.000
G1 X10.000 A24.000 F200.000
G0 Z0.500
G0 X0.000 A4.500
G1 Z-1.000 F200.000
G1 X10.000 A24.500 F200.000
G0 Z0.500
G0 X0.000 A5.000
G1 Z-1.000 F200.000
G1 X10.000 A25.000 F200.000
G0 Z0.500
G0 Z-0.850
G0 Z0.650
G0 X0.000
G0 A90.000

(Schneide 2)
G1 X0.000 A90.000 F200.000
G1 X10.000 A110.000 F200.000
G0 Z0.650
G0 X0.000 A90.500
G1 Z-1.000 F200.000
G1 X10.000 A110.500 F200.000
G0 Z0.500
G0 X0.000 A91.000
G1 Z-1.000 F200.000
G1 X10.000 A111.000 F200.000
G0 Z0.500
G0 X0.000 A91.500
G1 Z-1.000 F200.000
G1 X10.000 A111.500 F200.000
G0 Z0.500
G0 X0.000 A92.000
G1 Z-1.000 F200.000
G1 X10.000 A112.000 F200.000
G0 Z0.500
G0 X0.000 A92.500
G1 Z-1.000 F200.000
G1 X10.000 A112.500 F200.000
G0 Z0.500
G0 X0.000 A93.000
G1 Z-1.000 F200.000
G1 X10.000 A113.000 F200.000
G0 Z0.500
G0 X0.000 A93.500
G1 Z-1.000 F200.000
G1 X10.000 A113.500 F200.000
G0 Z0.500
G0 X0.000 A94.000
G1 Z-1.000 F200.000
G1 X10.000 A114.000 F200.000
G0 Z0.500
G0 X0.000 A94.500
G1 Z-1.000 F200.000
G1 X10.000 A114.500 F200.000
G0 Z0.500
G0 X0.000 A95.000
G1 Z-1.000 F200.000
G1 X10.000 A115.000 F200.000
G0 Z0.500
G0 Z-0.850
G0 Z0.650
G0 X0.000
G0 A180.000

(Schneide 3)
G1 X0.000 A180.000 F200.000
G1 X10.000 A200.000 F200.000
G0 Z0.650
G0 X0.000 A180.500
G1 Z-1.000 F200.000
G1 X10.000 A200.500 F200.000
G0 Z0.500
G0 X0.000 A181.000
G1 Z-1.000 F200.000
G1 X10.000 A201.000 F200.000
G0 Z0.500
G0 X0.000 A181.500
G1 Z-1.000 F200.000
G1 X10.000 A201.500 F200.000
G0 Z0.500
G0 X0.000 A182.000
G1 Z-1.000 F200.000
G1 X10.000 A202.000 F200.000
G0 Z0.500
G0 X0.000 A182.500
G1 Z-1.000 F200.000
G1 X10.000 A202.500 F200.000
G0 Z0.500
G0 X0.000 A183.000
G1 Z-1.000 F200.000
G1 X10.000 A203.000 F200.000
G0 Z0.500
G0 X0.000 A183.500
G1 Z-1.000 F200.000
G1 X10.000 A203.500 F200.000
G0 Z0.500
G0 X0.000 A184.000
G1 Z-1.000 F200.000
G1 X10.000 A204.000 F200.000
G0 Z0.500
G0 X0.000 A184.500
G1 Z-1.000 F200.000
G1 X10.000 A204.500 F200.000
G0 Z0.500
G0 X0.000 A185.000
G1 Z-1.000 F200.000
G1 X10.000 A205.000 F200.000
G0 Z0.500
G0 Z-0.850
G0 Z0.650
G0 X0.000
G0 A270.000

(Schneide 4)
G1 X0.000 A270.000 F200.000
G1 X10.000 A290.000 F200.000
G0 Z0.650
G0 X0.000 A270.500
G1 Z-1.000 F200.000
G1 X10.000 A290.500 F200.000
G0 Z0.500
G0 X0.000 A271.000
G1 Z-1.000 F200.000
G1 X10.000 A291.000 F200.000
G0 Z0.500
G0 X0.000 A271.500
G1 Z-1.000 F200.000
G1 X10.000 A291.500 F200.000
G0 Z0.500
G0 X0.000 A272.000
G1 Z-1.000 F200.000
G1 X10.000 A292.000 F200.000
G0 Z0.500
G0 X0.000 A272.500
G1 Z-1.000 F200.000
G1 X10.000 A292.500 F200.000
G0 Z0.500
G0 X0.000 A273.000
G1 Z-1.000 F200.000
G1 X10.000 A293.000 F200.000
G0 Z0.500
G0 X0.000 A273.500
G1 Z-1.000 F200.000
G1 X10.000 A293.500 F200.000
G0 Z0.500
G0 X0.000 A274.000
G1 Z-1.000 F200.000
G1 X10.000 A294.000 F200.000
G0 Z0.500
G0 X0.000 A274.500
G1 Z-1.000 F200.000
G1 X10.000 A294.500 F200.000
G0 Z0.500
G0 X0.000 A275.000
G1 Z-1.000 F200.000
G1 X10.000 A295.000 F200.000
G0 Z0.500
G0 Z-0.850
G0 Z0.650
G0 X0.000
G0 A0.000

G0 Z20.000

(Schleifdurchgang 18, Z=-0.900)
G1 Z-0.900 F200.000
(Schneide 1)
G1 X0.000 A0.000 F200.000
G1 X10.000 A20.000 F200.000
G0 Z0.600
G0 X0.000 A0.500
G1 Z-1.000 F200.000
G1 X10.000 A20.500 F200.000
G0 Z0.500
G0 X0.000 A1.000
G1 Z-1.000 F200.000
G1 X10.000 A21.000 F200.000
G0 Z0.500
G0 X0.000 A1.500
G1 Z-1.000 F200.000
G1 X10.000 A21.500 F200.000
G0 Z0.500
G0 X0.000 A2.000
G1 Z-1.000 F200.000
G1 X10.000 A22.000 F200.000
G0 Z0.500
G0 X0.000 A2.500
G1 Z-1.000 F200.000
G1 X10.000 A22.500 F200.000
G0 Z0.500
G0 X0.000 A3.000
G1 Z-1.000 F200.000
G1 X10.000 A23.000 F200.000
G0 Z0.500
G0 X0.000 A3.500
G1 Z-1.000 F200.000
G1 X10.000 A23.500 F200.000
G0 Z0.500
G0 X0.000 A4.000
G1 Z-1.000 F200.000
G1 X10.000 A24.000 F200.000
G0 Z0.500
G0 X0.000 A4.500
G1 Z-1.000 F200.000
G1 X10.000 A24.500 F200.000
G0 Z0.500
G0 X0.000 A5.000
G1 Z-1.000 F200.000
G1 X10.000 A25.000 F200.000
G0 Z0.500
G0 Z-0.900
G0 Z0.600
G0 X0.000
G0 A90.000

(Schneide 2)
G1 X0.000 A90.000 F200.000
G1 X10.000 A110.000 F200.000
G0 Z0.600
G0 X0.000 A90.500
G1 Z-1.000 F200.000
G1 X10.000 A110.500 F200.000
G0 Z0.500
G0 X0.000 A91.000
G1 Z-1.000 F200.000
G1 X10.000 A111.000 F200.000
G0 Z0.500
G0 X0.000 A91.500
G1 Z-1.000 F200.000
G1 X10.000 A111.500 F200.000
G0 Z0.500
G0 X0.000 A92.000
G1 Z-1.000 F200.000
G1 X10.000 A112.000 F200.000
G0 Z0.500
G0 X0.000 A92.500
G1 Z-1.000 F200.000
G1 X10.000 A112.500 F200.000
G0 Z0.500
G0 X0.000 A93.000
G1 Z-1.000 F200.000
G1 X10.000 A113.000 F200.000
G0 Z0.500
G0 X0.000 A93.500
G1 Z-1.000 F200.000
G1 X10.000 A113.500 F200.000
G0 Z0.500
G0 X0.000 A94.000
G1 Z-1.000 F200.000
G1 X10.000 A114.000 F200.000
G0 Z0.500
G0 X0.000 A94.500
G1 Z-1.000 F200.000
G1 X10.000 A114.500 F200.000
G0 Z0.500
G0 X0.000 A95.000
G1 Z-1.000 F200.000
G1 X10.000 A115.000 F200.000
G0 Z0.500
G0 Z-0.900
G0 Z0.600
G0 X0.000
G0 A180.000

(Schneide 3)
G1 X0.000 A180.000 F200.000
G1 X10.000 A200.000 F200.000
G0 Z0.600
G0 X0.000 A180.500
G1 Z-1.000 F200.000
G1 X10.000 A200.500 F200.000
G0 Z0.500
G0 X0.000 A181.000
G1 Z-1.000 F200.000
G1 X10.000 A201.000 F200.000
G0 Z0.500
G0 X0.000 A181.500
G1 Z-1.000 F200.000
G1 X10.000 A201.500 F200.000
G0 Z0.500
G0 X0.000 A182.000
G1 Z-1.000 F200.000
G1 X10.000 A202.000 F200.000
G0 Z0.500
G0 X0.000 A182.500
G1 Z-1.000 F200.000
G1 X10.000 A202.500 F200.000
G0 Z0.500
G0 X0.000 A183.000
G1 Z-1.000 F200.000
G1 X10.000 A203.000 F200.000
G0 Z0.500
G0 X0.000 A183.500
G1 Z-1.000 F200.000
G1 X10.000 A203.500 F200.000
G0 Z0.500
G0 X0.000 A184.000
G1 Z-1.000 F200.000
G1 X10.000 A204.000 F200.000
G0 Z0.500
G0 X0.000 A184.500
G1 Z-1.000 F200.000
G1 X10.000 A204.500 F200.000
G0 Z0.500
G0 X0.000 A185.000
G1 Z-1.000 F200.000
G1 X10.000 A205.000 F200.000
G0 Z0.500
G0 Z-0.900
G0 Z0.600
G0 X0.000
G0 A270.000

(Schneide 4)
G1 X0.000 A270.000 F200.000
G1 X10.000 A290.000 F200.000
G0 Z0.600
G0 X0.000 A270.500
G1 Z-1.000 F200.000
G1 X10.000 A290.500 F200.000
G0 Z0.500
G0 X0.000 A271.000
G1 Z-1.000 F200.000
G1 X10.000 A291.000 F200.000
G0 Z0.500
G0 X0.000 A271.500
G1 Z-1.000 F200.000
G1 X10.000 A291.500 F200.000
G0 Z0.500
G0 X0.000 A272.000
G1 Z-1.000 F200.000
G1 X10.000 A292.000 F200.000
G0 Z0.500
G0 X0.000 A272.500
G1 Z-1.000 F200.000
G1 X10.000 A292.500 F200.000
G0 Z0.500
G0 X0.000 A273.000
G1 Z-1.000 F200.000
G1 X10.000 A293.000 F200.000
G0 Z0.500
G0 X0.000 A273.500
G1 Z-1.000 F200.000
G1 X10.000 A293.500 F200.000
G0 Z0.500
G0 X0.000 A274.000
G1 Z-1.000 F200.000
G1 X10.000 A294.000 F200.000
G0 Z0.500
G0 X0.000 A274.500
G1 Z-1.000 F200.000
G1 X10.000 A294.500 F200.000
G0 Z0.500
G0 X0.000 A275.000
G1 Z-1.000 F200.000
G1 X10.000 A295.000 F200.000
G0 Z0.500
G0 Z-0.900
G0 Z0.600
G0 X0.000
G0 A0.000

G0 Z20.000

(Schleifdurchgang 19, Z=-0.950)
G1 Z-0.950 F200.000
(Schneide 1)
G1 X0.000 A0.000 F200.000
G1 X10.000 A20.000 F200.000
G0 Z0.550
G0 X0.000 A0.500
G1 Z-1.000 F200.000
G1 X10.000 A20.500 F200.000
G0 Z0.500
G0 X0.000 A1.000
G1 Z-1.000 F200.000
G1 X10.000 A21.000 F200.000
G0 Z0.500
G0 X0.000 A1.500
G1 Z-1.000 F200.000
G1 X10.000 A21.500 F200.000
G0 Z0.500
G0 X0.000 A2.000
G1 Z-1.000 F200.000
G1 X10.000 A22.000 F200.000
G0 Z0.500
G0 X0.000 A2.500
G1 Z-1.000 F200.000
G1 X10.000 A22.500 F200.000
G0 Z0.500
G0 X0.000 A3.000
G1 Z-1.000 F200.000
G1 X10.000 A23.000 F200.000
G0 Z0.500
G0 X0.000 A3.500
G1 Z-1.000 F200.000
G1 X10.000 A23.500 F200.000
G0 Z0.500
G0 X0.000 A4.000
G1 Z-1.000 F200.000
G1 X10.000 A24.000 F200.000
G0 Z0.500
G0 X0.000 A4.500
G1 Z-1.000 F200.000
G1 X10.000 A24.500 F200.000
G0 Z0.500
G0 X0.000 A5.000
G1 Z-1.000 F200.000
G1 X10.000 A25.000 F200.000
G0 Z0.500
G0 Z-0.950
G0 Z0.550
G0 X0.000
G0 A90.000

(Schneide 2)
G1 X0.000 A90.000 F200.000
G1 X10.000 A110.000 F200.000
G0 Z0.550
G0 X0.000 A90.500
G1 Z-1.000 F200.000
G1 X10.000 A110.500 F200.000
G0 Z0.500
G0 X0.000 A91.000
G1 Z-1.000 F200.000
G1 X10.000 A111.000 F200.000
G0 Z0.500
G0 X0.000 A91.500
G1 Z-1.000 F200.000
G1 X10.000 A111.500 F200.000
G0 Z0.500
G0 X0.000 A92.000
G1 Z-1.000 F200.000
G1 X10.000 A112.000 F200.000
G0 Z0.500
G0 X0.000 A92.500
G1 Z-1.000 F200.000
G1 X10.000 A112.500 F200.000
G0 Z0.500
G0 X0.000 A93.000
G1 Z-1.000 F200.000
G1 X10.000 A113.000 F200.000
G0 Z0.500
G0 X0.000 A93.500
G1 Z-1.000 F200.000
G1 X10.000 A113.500 F200.000
G0 Z0.500
G0 X0.000 A94.000
G1 Z-1.000 F200.000
G1 X10.000 A114.000 F200.000
G0 Z0.500
G0 X0.000 A94.500
G1 Z-1.000 F200.000
G1 X10.000 A114.500 F200.000
G0 Z0.500
G0 X0.000 A95.000
G1 Z-1.000 F200.000
G1 X10.000 A115.000 F200.000
G0 Z0.500
G0 Z-0.950
G0 Z0.550
G0 X0.000
G0 A180.000

(Schneide 3)
G1 X0.000 A180.000 F200.000
G1 X10.000 A200.000 F200.000
G0 Z0.550
G0 X0.000 A180.500
G1 Z-1.000 F200.000
G1 X10.000 A200.500 F200.000
G0 Z0.500
G0 X0.000 A181.000
G1 Z-1.000 F200.000
G1 X10.000 A201.000 F200.000
G0 Z0.500
G0 X0.000 A181.500
G1 Z-1.000 F200.000
G1 X10.000 A201.500 F200.000
G0 Z0.500
G0 X0.000 A182.000
G1 Z-1.000 F200.000
G1 X10.000 A202.000 F200.000
G0 Z0.500
G0 X0.000 A182.500
G1 Z-1.000 F200.000
G1 X10.000 A202.500 F200.000
G0 Z0.500
G0 X0.000 A183.000
G1 Z-1.000 F200.000
G1 X10.000 A203.000 F200.000
G0 Z0.500
G0 X0.000 A183.500
G1 Z-1.000 F200.000
G1 X10.000 A203.500 F200.000
G0 Z0.500
G0 X0.000 A184.000
G1 Z-1.000 F200.000
G1 X10.000 A204.000 F200.000
G0 Z0.500
G0 X0.000 A184.500
G1 Z-1.000 F200.000
G1 X10.000 A204.500 F200.000
G0 Z0.500
G0 X0.000 A185.000
G1 Z-1.000 F200.000
G1 X10.000 A205.000 F200.000
G0 Z0.500
G0 Z-0.950
G0 Z0.550
G0 X0.000
G0 A270.000

(Schneide 4)
G1 X0.000 A270.000 F200.000
G1 X10.000 A290.000 F200.000
G0 Z0.550
G0 X0.000 A270.500
G1 Z-1.000 F200.000
G1 X10.000 A290.500 F200.000
G0 Z0.500
G0 X0.000 A271.000
G1 Z-1.000 F200.000
G1 X10.000 A291.000 F200.000
G0 Z0.500
G0 X0.000 A271.500
G1 Z-1.000 F200.000
G1 X10.000 A291.500 F200.000
G0 Z0.500
G0 X0.000 A272.000
G1 Z-1.000 F200.000
G1 X10.000 A292.000 F200.000
G0 Z0.500
G0 X0.000 A272.500
G1 Z-1.000 F200.000
G1 X10.000 A292.500 F200.000
G0 Z0.500
G0 X0.000 A273.000
G1 Z-1.000 F200.000
G1 X10.000 A293.000 F200.000
G0 Z0.500
G0 X0.000 A273.500
G1 Z-1.000 F200.000
G1 X10.000 A293.500 F200.000
G0 Z0.500
G0 X0.000 A274.000
G1 Z-1.000 F200.000
G1 X10.000 A294.000 F200.000
G0 Z0.500
G0 X0.000 A274.500
G1 Z-1.000 F200.000
G1 X10.000 A294.500 F200.000
G0 Z0.500
G0 X0.000 A275.000
G1 Z-1.000 F200.000
G1 X10.000 A295.000 F200.000
G0 Z0.500
G0 Z-0.950
G0 Z0.550
G0 X0.000
G0 A0.000

G0 Z20.000

(Schleifdurchgang 20, Z=-1.000)
G1 Z-1.000 F200.000
(Schneide 1)
G1 X0.000 A0.000 F200.000
G1 X10.000 A20.000 F200.000
G0 Z0.500
G0 X0.000 A0.500
G1 Z-1.000 F200.000
G1 X10.000 A20.500 F200.000
G0 Z0.500
G0 X0.000 A1.000
G1 Z-1.000 F200.000
G1 X10.000 A21.000 F200.000
G0 Z0.500
G0 X0.000 A1.500
G1 Z-1.000 F200.000
G1 X10.000 A21.500 F200.000
G0 Z0.500
G0 X0.000 A2.000
G1 Z-1.000 F200.000
G1 X10.000 A22.000 F200.000
G0 Z0.500
G0 X0.000 A2.500
G1 Z-1.000 F200.000
G1 X10.000 A22.500 F200.000
G0 Z0.500
G0 X0.000 A3.000
G1 Z-1.000 F200.000
G1 X10.000 A23.000 F200.000
G0 Z0.500
G0 X0.000 A3.500
G1 Z-1.000 F200.000
G1 X10.000 A23.500 F200.000
G0 Z0.500
G0 X0.000 A4.000
G1 Z-1.000 F200.000
G1 X10.000 A24.000 F200.000
G0 Z0.500
G0 X0.000 A4.500
G1 Z-1.000 F200.000
G1 X10.000 A24.500 F200.000
G0 Z0.500
G0 X0.000 A5.000
G1 Z-1.000 F200.000
G1 X10.000 A25.000 F200.000
G0 Z0.500
G0 Z-1.000
G0 Z0.500
G0 X0.000
G0 A90.000

(Schneide 2)
G1 X0.000 A90.000 F200.000
G1 X10.000 A110.000 F200.000
G0 Z0.500
G0 X0.000 A90.500
G1 Z-1.000 F200.000
G1 X10.000 A110.500 F200.000
G0 Z0.500
G0 X0.000 A91.000
G1 Z-1.000 F200.000
G1 X10.000 A111.000 F200.000
G0 Z0.500
G0 X0.000 A91.500
G1 Z-1.000 F200.000
G1 X10.000 A111.500 F200.000
G0 Z0.500
G0 X0.000 A92.000
G1 Z-1.000 F200.000
G1 X10.000 A112.000 F200.000
G0 Z0.500
G0 X0.000 A92.500
G1 Z-1.000 F200.000
G1 X10.000 A112.500 F200.000
G0 Z0.500
G0 X0.000 A93.000
G1 Z-1.000 F200.000
G1 X10.000 A113.000 F200.000
G0 Z0.500
G0 X0.000 A93.500
G1 Z-1.000 F200.000
G1 X10.000 A113.500 F200.000
G0 Z0.500
G0 X0.000 A94.000
G1 Z-1.000 F200.000
G1 X10.000 A114.000 F200.000
G0 Z0.500
G0 X0.000 A94.500
G1 Z-1.000 F200.000
G1 X10.000 A114.500 F200.000
G0 Z0.500
G0 X0.000 A95.000
G1 Z-1.000 F200.000
G1 X10.000 A115.000 F200.000
G0 Z0.500
G0 Z-1.000
G0 Z0.500
G0 X0.000
G0 A180.000

(Schneide 3)
G1 X0.000 A180.000 F200.000
G1 X10.000 A200.000 F200.000
G0 Z0.500
G0 X0.000 A180.500
G1 Z-1.000 F200.000
G1 X10.000 A200.500 F200.000
G0 Z0.500
G0 X0.000 A181.000
G1 Z-1.000 F200.000
G1 X10.000 A201.000 F200.000
G0 Z0.500
G0 X0.000 A181.500
G1 Z-1.000 F200.000
G1 X10.000 A201.500 F200.000
G0 Z0.500
G0 X0.000 A182.000
G1 Z-1.000 F200.000
G1 X10.000 A202.000 F200.000
G0 Z0.500
G0 X0.000 A182.500
G1 Z-1.000 F200.000
G1 X10.000 A202.500 F200.000
G0 Z0.500
G0 X0.000 A183.000
G1 Z-1.000 F200.000
G1 X10.000 A203.000 F200.000
G0 Z0.500
G0 X0.000 A183.500
G1 Z-1.000 F200.000
G1 X10.000 A203.500 F200.000
G0 Z0.500
G0 X0.000 A184.000
G1 Z-1.000 F200.000
G1 X10.000 A204.000 F200.000
G0 Z0.500
G0 X0.000 A184.500
G1 Z-1.000 F200.000
G1 X10.000 A204.500 F200.000
G0 Z0.500
G0 X0.000 A185.000
G1 Z-1.000 F200.000
G1 X10.000 A205.000 F200.000
G0 Z0.500
G0 Z-1.000
G0 Z0.500
G0 X0.000
G0 A270.000

(Schneide 4)
G1 X0.000 A270.000 F200.000
G1 X10.000 A290.000 F200.000
G0 Z0.500
G0 X0.000 A270.500
G1 Z-1.000 F200.000
G1 X10.000 A290.500 F200.000
G0 Z0.500
G0 X0.000 A271.000
G1 Z-1.000 F200.000
G1 X10.000 A291.000 F200.000
G0 Z0.500
G0 X0.000 A271.500
G1 Z-1.000 F200.000
G1 X10.000 A291.500 F200.000
G0 Z0.500
G0 X0.000 A272.000
G1 Z-1.000 F200.000
G1 X10.000 A292.000 F200.000
G0 Z0.500
G0 X0.000 A272.500
G1 Z-1.000 F200.000
G1 X10.000 A292.500 F200.000
G0 Z0.500
G0 X0.000 A273.000
G1 Z-1.000 F200.000
G1 X10.000 A293.000 F200.000
G0 Z0.500
G0 X0.000 A273.500
G1 Z-1.000 F200.000
G1 X10.000 A293.500 F200.000
G0 Z0.500
G0 X0.000 A274.000
G1 Z-1.000 F200.000
G1 X10.000 A294.000 F200.000
G0 Z0.500
G0 X0.000 A274.500
G1 Z-1.000 F200.000
G1 X10.000 A294.500 F200.000
G0 Z0.500
G0 X0.000 A275.000
G1 Z-1.000 F200.000
G1 X10.000 A295.000 F200.000
G0 Z0.500
G0 Z-1.000
G0 Z0.500
G0 X0.000
G0 A0.000

G0 Z20.000

(Ende Schleifprogramm)
G0 Z20.000
M5   (Spindel AUS)
G0 X0 Y0 A0
M30